name,address,city,zip,lat,lon,id,geog
PS Energy - Atlanta,340 Whitehall St,Atlanta,30303,33.745843,-84.398837,42,0101000020E6100000D3DB9F8B861955C0AB798EC877DF4040
Clean Energy - Texas Department of Transportation,7721A Washington St,Houston,77007,29.779918,-95.435385,72,0101000020E6100000D00A0C59DDDB57C0CD8FBFB4A8C73D40
Arkansas Oklahoma Gas Corp,2100 S Waldron Rd,Fort Smith,72903,35.362213,-94.375338,73,0101000020E61000008CBCAC89059857C0D097DEFE5CAE4140
Clean Energy - Logan International Airport,1000 Cottage St Ext,East Boston,2128,42.37470555,-71.02654861,81,0101000020E610000013EDF0F8B2C151C09A70F959F62F4540
Clean Energy - Everett - National Grid,12 Rover St,Everett,2149,42.393167,-71.064352,84,0101000020E6100000A9DBD9571EC451C0E76ED74B53324540
Clean Energy - Greenpoint - National Grid,287 Maspeth Ave,Brooklyn,11211,40.718037,-73.932309,108,0101000020E61000000E315EF3AA7B52C0B328ECA2E85B4440
Clean Energy - Canarsie - National Grid,8424 Ditmas Ave,Brooklyn,11236,40.64554,-73.918344,112,0101000020E6100000959EE925C67A52C04221020EA1524440
Con Edison - W 29th St Service Center,281 11th Ave,New York,10001,40.752903,-74.005831,124,0101000020E61000006493FC885F8052C0B80721205F604440
Con Edison - E 16th St Service Center,700 E 16th St,New York,10009,40.729175,-73.97331,125,0101000020E6100000AAB706B64A7E52C0C8073D9B555D4440
Con Edison - Van Nest Service Center,1615 Bronxdale Ave,Bronx,10462,40.8441883,-73.8615724,129,0101000020E6100000B8489000247752C03A15BA5C0E6C4440
Con Edison - College Point Service Center,124-15 31st Ave,Queens,11354,40.769623,-73.843069,132,0101000020E61000005FD1ADD7F47552C0ED9FA70183624440
CNG Source Fueling - Greene's Auto & Truck Service,111 W Raymond St,Indianapolis,46225,39.736169,-86.161743,147,0101000020E6100000D8D64FFF598A55C01DAA29C93ADE4340
Black Hills Energy,1301 W 24th St,Cheyenne,82001,41.135848,-104.830233,215,0101000020E6100000D7C3978922355AC00F9D9E7763914440
Sparq - Baton Rouge,8968 S Choctaw Dr,Baton Rouge,70815,30.471166,-91.087975,296,0101000020E610000066F7E461A1C556C0B5FCC0559E783E40
Clean Energy - City of Santa Fe - Santa Fe Trails Transit,2931 Rufina St,Santa Fe,87507,35.65758,-105.993406,360,0101000020E61000009C69C2F6937F5AC07940D9942BD44140
Kansas Gas Service,11401 W 89th St,Overland Park,66214,38.966292,-94.715917,372,0101000020E6100000A1698995D1AD57C07731CD74AF7B4340
Kansas Gas Service,200 E 1st Ave,Topeka,66603,39.058754,-95.667854,434,0101000020E61000002E20B41EBEEA57C02D41464085874340
Laclede Gas Co - Shrewsbury Facility,4118 Shrewsbury Ave,St. Louis,63119,38.598601,-90.323574,440,0101000020E61000007FF5B86FB59456C02C2D23F59E4C4340
Clean Energy - Brentwood - National Grid,1650 Islip Ave,Brentwood,11717,40.785664,-73.219818,448,0101000020E61000009E44847F114E52C080D250A390644440
Clean Energy - Hicksville - National Grid,175 E Old Country Rd,Hicksville,11801,40.766799,-73.509603,449,0101000020E610000062BCE6559D6052C081CD397826624440
Clean Energy - City of Irving,128 N Briery Rd,Irving,75061,32.817883,-96.988716,453,0101000020E61000000B42791F473F58C0297AE063B0684040
Clean Energy - Downtown Dallas,801 S Riverfront Blvd,Dallas,75207,32.76662,-96.807086,456,0101000020E6100000CEC3094CA73358C0D23AAA9A20624040
Clean Energy - Garland Independent School District,3526 Security St,Garland,75042,32.89683,-96.68401,477,0101000020E6100000C408E1D1C62B58C02D095053CB724040
Questar Gas - Salt Lake City,1150 W 200 S,Salt Lake City,84104,40.764976,-111.922291,528,0101000020E61000004A99D4D006FB5BC0C91CCBBBEA614440
Questar Gas - LW's Conoco,1050 W 200 N,Logan,84321,41.734633,-111.861488,548,0101000020E61000005F79909E22F75BC0FCC7427408DE4440
Dominion Energy - Market Express Sinclair,850 S Carbon Ave,Price,84501,39.586805,-110.813433,558,0101000020E61000002E1F49490FB45BC08C101E6D1CCB4340
Questar Gas - Chevron,1375 N Main St,Richfield,84701,38.786621,-112.084147,569,0101000020E61000009E4319AA62055CC064AC36FFAF644340
X3Energy,3103 N Industrial Way,Castle Rock,80104,39.407087,-104.872002,633,0101000020E6100000FB027AE1CE375AC039D0436D1BB44340
Clean Energy - Denver International Airport Rental Car,27700 E 78th Ave,Denver,80249,39.83765605,-104.6805,648,0101000020E6100000643BDF4F8D2B5AC0F5053E5038EB4340
Clean Energy - Albany - National Grid,1125 Broadway,Menands,12204,42.667569,-73.739345,703,0101000020E610000083DDB06D516F52C06669A7E672554540
Oklahoma Natural Gas - Southside Service Center,412 SE 59th St,Oklahoma City,73129,35.406042,-97.503367,740,0101000020E6100000AEB8382A376058C0B6662B2FF9B34140
Oklahoma Natural Gas - Southern Oklahoma Development Association,1995 Veterans Blvd,Ardmore,73401,34.185103,-97.107574,743,0101000020E610000098F90E7EE24658C01CB28174B1174140
Oklahoma Natural Gas - Enid Service Center,421 S Garland Rd,Enid,73703,36.393246,-97.942055,748,0101000020E610000021020EA14A7C58C033A48AE255324240
EZ Go #53,Mile 178 Turner Turnpike,Stroud,74079,35.751753,-96.689896,752,0101000020E61000000A698D41272C58C0BFD53A7139E04140
Oklahoma Natural Gas - Tulsa Service Center,5848 E 15th St,Tulsa,74112,36.13876,-95.911286,755,0101000020E61000005FD3838252FA57C019FF3EE3C2114240
Oklahoma Natural Gas - Muskogee Service Center,2616 Border Ave,Muskogee,74401,35.740689,-95.396141,765,0101000020E6100000B4E6C75F5AD957C0E4C0ABE5CEDE4140
Oklahoma Natural Gas - Ponca City Service Center,2205 N Ash St,Ponca City,74601,36.730008,-97.093765,767,0101000020E61000009B20EA3E004658C0C0E8F2E6705D4240
Oklahoma Natural Gas - Shawnee Service Center,1444 N Kickapoo St,Shawnee,74801,35.346744,-96.930096,768,0101000020E6100000FD885FB1863B58C0C80A7E1B62AC4140
Clean Energy - Plymouth,680 Ridge Pike,Plymouth Meeting,19462,40.080572,-75.252389,787,0101000020E6100000B037312427D052C0957CEC2E500A4440
PG&E - Grass Valley Service Center,788 Taylorville Rd,Grass Valley,95949,39.20062,-121.062126,792,0101000020E6100000CE8E54DFF9435EC0367689EAAD994340
United Parcel Service,4500 Norris Canyon Rd,San Ramon,94583,37.773172,-121.968239,797,0101000020E61000008DEDB5A0F77D5EC06A17D34CF7E24240
PG&E - Santa Cruz Service Center,615 7th Ave,Santa Cruz,95062,36.969267,-121.999295,798,0101000020E61000009B030473F47F5EC0C80BE9F0107C4240
PG&E - Bakersfield Service Center,4101 Wible Rd,Bakersfield,93313,35.317617,-119.039048,801,0101000020E610000059BE2EC37FC25DC0AAD381ACA7A84140
PG&E - Fresno Service Center,3754 E California Ave,Fresno,93725,36.72136,-119.761165,806,0101000020E6100000087767EDB6F05DC03F524486555C4240
PG&E - Salinas Service Center,390 Griffin St,Salinas,93901,36.67217,-121.641106,809,0101000020E61000003DD175E107695EC019ADA3AA09564240
PG&E - San Carlos Service Center,275 Industrial Way,San Carlos,94070,37.51689165,-122.2624653,810,0101000020E61000006EF5413BCC905EC0A9296E8129C24240
PG&E - San Francisco Service Center,536 Treat Ave,San Francisco,94110,37.761127,-122.41383,813,0101000020E6100000A306D3307C9A5EC0228D0A9C6CE14240
PG&E - Concord Service Center,1030 Detroit Ave,Concord,94518,37.956072,-122.028697,816,0101000020E6100000921FF12BD6815EC0874F3A9160FA4240
PG&E - Hayward Service Center,24300 Clawiter Rd,Hayward,94545,37.642339,-122.117821,818,0101000020E61000000D7217618A875EC001F9122A38D24240
PG&E - Richmond Service Center,1100 S 27th St,Richmond,94804,37.916909,-122.344036,826,0101000020E6100000632992AF04965EC03B342C465DF54240
PG&E - San Rafael Service Center,1220 Andersen Dr,San Rafael,94901,37.951236,-122.499682,827,0101000020E6100000981936CAFA9F5EC09163EB19C2F94240
PG&E - Cupertino Service Center,10900 N Blaney Ave,Cupertino,95014,37.335646,-122.021398,828,0101000020E6100000CA8CB7955E815EC04084B872F6AA4240
PG&E - Stockton Service Center,4040 West Ln,Stockton,95204,37.990624,-121.283787,832,0101000020E6100000EB01F39029525EC0FC5069C4CCFE4240
PG&E - Santa Rosa Service Center,3965 Occidental Rd,Santa Rosa,95401,38.428592,-122.766929,834,0101000020E6100000A8565F5D15B15EC0E3A9471ADC364340
PG&E - Auburn Service Center,333 Sacramento St,Auburn,95603,38.888863,-121.074465,835,0101000020E610000096ECD808C4445EC0EECF4543C6714340
PG&E - Davis Service Center,1415 2nd St,Davis,95616,38.545155,-121.731878,836,0101000020E61000005CAAD216D76E5EC01D2098A3C7454340
PG&E - Florin-Perkins Service Center,5555 Florin-Perkins Rd,Sacramento,95826,38.526151,-121.388438,842,0101000020E610000083A10E2BDC585EC0FCE07CEA58434340
City of Milton,5162 Munson Hwy,Milton,32570,30.633284,-87.041286,864,0101000020E610000017F2086EA4C255C07F1475E61EA23E40
Piedmont Natural Gas - Greenville,100 Woodruff Industrial Ln,Greenville,29607,34.829494,-82.310005,897,0101000020E61000002D26361FD79354C0361D01DC2C6A4140
PSNC Energy,2712 Discovery Dr,Raleigh,27616,35.860856,-78.594331,907,0101000020E6100000EFFFE38409A653C05E48878730EE4140
San Diego Gas and Electric - Carlsbad,602 Cannon Rd,Carlsbad,92008,33.13411446,-117.3323437,942,0101000020E610000006A2821E45555DC073CFA1A92A914040
Poway Unified School District,13626 Twin Peaks Rd,Poway,92064,32.978339,-117.034924,945,0101000020E61000001D76DF313C425DC05FB35C363A7D4040
San Diego Gas and Electric Service Center - Miramar Yard,6875 Consolidated Way,San Diego,92121,32.876295,-117.166362,951,0101000020E61000000553CDACA54A5DC0FC523F6F2A704040
San Diego Gas and Electric Service Center - San Diego,5488 Overland Ave,San Diego,92123,32.833537,-117.132811,952,0101000020E61000002463B5F97F485DC0C3802557B16A4040
Clean Energy - Waste Management - Moreno Valley,17700 Indian Ave,Moreno Valley,92551,33.862772,-117.234706,982,0101000020E6100000338B506C054F5DC0C7F319506FEE4040
Clean Energy - Santa Monica SoCal Gas,1701 Stewart St,Santa Monica,90404,34.030601,-118.465876,995,0101000020E610000071FF91E9D09D5DC0C91CCBBBEA034140
Clean Energy - Los Angeles County Sanitation District,2800 Workman Mill Rd,Whittier,90601,34.025657,-118.031019,997,0101000020E61000007FA31D37FC815DC0EDF483BA48034140
SoCalGas - Pico Rivera Base,8101 S Rosemead Blvd,Pico Rivera,90660,33.968221,-118.109093,1000,0101000020E61000003ECE3461FB865DC074266DAAEEFB4040
SoCalGas - San Pedro Base,755 W Capitol Dr,Los Angeles,90731,33.758315,-118.293979,1002,0101000020E61000007DAD4B8DD0925DC07B88467710E14040
SoCalGas - Van Nuys Base,16645 Saticoy St,Los Angeles,91406,34.209219,-118.496403,1006,0101000020E6100000B9A81611C59F5DC0D5592DB0C71A4140
City of Covina - City Corporate Yard,534 N Barranca Ave,Covina,91723,34.091688,-117.87986,1009,0101000020E6100000BF4351A04F785DC0C3B7B06EBC0B4140
SunLine Transit Agency,32-505 Harry Oliver Trail,Thousand Palms,92276,33.812361,-116.395444,1014,0101000020E610000090D959F44E195DC0DFC5FB71FBE74040
SoCalGas - Riverside Base,3077 Cottage St,Riverside,92507,33.971694,-117.371722,1016,0101000020E61000000A4D124BCA575DC016DC0F7860FC4040
SoCalGas - Garden Grove Base,12698 Industry St,Garden Grove,92841,33.778966,-118.007908,1017,0101000020E61000001D588E9081805DC014596B28B5E34040
Clean Energy - Irvine City Yard,6427 Oak Canyon,Irvine,92618,33.676026,-117.764558,1022,0101000020E61000004A79AD84EE705DC0739F1C0588D64040
SoCalGas - Oxnard Base,1650 Patton Ct,Oxnard,93030,34.191405,-119.161215,1025,0101000020E6100000FA27B85851CA5DC03CA583F57F184140
Revolution CNG - JB Dewar Inc,75 Prado Rd,San Luis Obispo,93401,35.254197,-120.670939,1029,0101000020E61000001AA721AAF02A5EC0E3DEFC8689A04140
Clean Energy - RTC Losee,3333 Losee Rd,North Las Vegas,89124,36.220567,-115.125553,1083,0101000020E61000008A3A730F09C85CC0D6C9198A3B1C4240
Virginia Natural Gas - Lance Rd,1184 Lance Rd,Norfolk,23502,36.864044,-76.217318,1108,0101000020E610000042B5C189E80D53C00B2769FE986E4240
Virginia Natural Gas - VNG Office,746 Diligence Dr,Newport News,23606,37.083023,-76.463112,1110,0101000020E6100000A69883A0A31D53C06CE8667FA08A4240
Montgomery County Government - Gaithersburg Highway Fuel Site,17000 Crabbs Branch Way,Derwood,20855,39.132781,-77.172278,1130,0101000020E610000080F44D9A064B53C0DD43C2F7FE904340
Memphis Light Gas and Water - North Center,1130 Tupelo St,Memphis,38108,35.166531,-89.972823,1215,0101000020E6100000FC7266BB427E56C0956247E350954140
Clean Energy - Lindbergh Field Shell,2521 Pacific Hwy,San Diego,92101,32.729925,-117.173535,1226,0101000020E6100000876D8B321B4B5DC033C4B12E6E5D4040
Clean Energy - Los Angeles International Airport,10400 Aviation Blvd,Los Angeles,90045,33.941383,-118.377866,1251,0101000020E61000004D11E0F42E985DC05401F73C7FF84040
Oklahoma Natural Gas - Okmulgee Service Center,2018 S Wood Dr,Okmulgee,74447,35.602719,-95.962047,1264,0101000020E6100000C18D942D92FD57C0C3D66CE525CD4140
Washington Elementary School District,12641 N 39th Ave,Phoenix,85029,33.6013089,-112.1419547,1286,0101000020E6100000DD802AC915095CC09925A6B0F7CC4040
PG&E - Chico Service Center,11239 Midway,Chico,95928,39.710548,-121.812671,1347,0101000020E610000016DA39CD02745EC07E1EA33CF3DA4340
PG&E - Vacaville Service Center,158 Peabody Rd,Vacaville,95687,38.3509,-121.977342,1349,0101000020E610000076C075C58C7E5EC04D158C4AEA2C4340
SunLine Transit Agency,83-255 Highway 111,Indio,92201,33.714919,-116.211564,1352,0101000020E6100000B340BB438A0D5DC0FF243E7782DB4040
SoCalGas - Energy Resource Center,9240 E Firestone Blvd,Downey,90241,33.932994,-118.119479,1353,0101000020E6100000C3633F8BA5875DC09FAEEE586CF74040
Trillium - Southern California Gas Co,1919 S State College Blvd,Anaheim,92806,33.801121,-117.889388,1354,0101000020E61000001C5DA5BBEB785DC0C59107228BE64040
SoCalGas - Compton Base,1471 E Elm St,Compton,90221,33.899899,-118.207088,1361,0101000020E610000038D906EE408D5DC0FF59F3E32FF34040
City of Ontario - City Yard,1440 S Cucamonga St,Ontario,91761,34.047068,-117.634077,1370,0101000020E61000005589B2B794685DC01558005306064140
Clean Energy - Palm Springs International Airport,3400 E Tahquitz Canyon Way,Palm Springs,92262,33.823151,-116.508135,1380,0101000020E6100000FDBCA94885205DC0B95510035DE94040
United Parcel Service,1735 S Turner Ave,Ontario,91761,34.042311,-117.584572,7037,0101000020E6100000118AADA069655DC06AA164726A054140
Clean Energy - City of Tulare,3989 S K St,Tulare,93274,36.169487,-119.338155,7041,0101000020E6100000A67EDE54A4D55DC06F0C01C0B1154240
Oklahoma Natural Gas - Broken Arrow Service Center,2421 S 1st Pl,Broken Arrow,74012,36.023112,-95.786303,7108,0101000020E6100000CA6FD1C952F257C094128255F5024240
Norwich Public Utilities,157 N Main St,Norwich,6360,41.527246,-72.064419,7119,0101000020E61000006D8FDE701F0452C0317903CC7CC34440
Clean Energy - Cockrell Hill,2005 S Cockrell Hill Rd,Dallas,75211,32.723948,-96.893853,12767,0101000020E61000009D9B36E3343958C09700FC53AA5C4040
Oklahoma Natural Gas - Norman Service Center,605 N Berry Rd,Norman,73069,35.225601,-97.458827,12781,0101000020E610000065E1EB6B5D5D58C0F2785A7EE09C4140
Oklahoma Natural Gas - Pauls Valley Service Center,1701 W Airline Rd,Pauls Valley,73075,34.707522,-97.242035,12783,0101000020E6100000315F5E807D4F58C0AA99B514905A4140
Oklahoma Natural Gas - CNG Maintenance Facility,1028 N Preston,Davenport,74026,35.7140876,-96.7681766,12784,0101000020E61000005CA32FCE293158C0543DF43867DB4140
Oklahoma Natural Gas - Sapulpa Service Center,410 S Hawthorne St,Sapulpa,74066,35.993424,-96.127984,12786,0101000020E6100000529ACDE3300858C0DF87838428FF4140
City of Victorville,14201 McArt Rd,Victorville,92392,34.508713,-117.332343,12799,0101000020E61000007D03931B45555DC06806F1811D414140
Fountain Valley - Orange County Sanitation District,10844 Ellis Ave,Fountain Valley,92708,33.691565,-117.939438,12826,0101000020E6100000A8A78FC01F7C5DC07407B13385D84040
Whittier Union High School District,13200 Mulberry Dr,Whittier,90602,33.954901,-118.045014,12832,0101000020E61000002D776682E1825DC077F52A323AFA4040
SoCalGas - Santa Barbara Base,219 N Quarantina St,Santa Barbara,93103,34.421443,-119.684178,12839,0101000020E610000022A98592C9EB5DC066101FD8F1354140
Kings Canyon Unified School District,1600 S Apple Ave,Reedley,93654,36.590599,-119.4258,12840,0101000020E6100000C1A8A44E40DB5DC070067FBF984B4240
City of Delano,725 S Lexington St,Delano,93215,35.75191,-119.240762,12841,0101000020E6100000A70705A568CF5DC087C43D963EE04140
DTE Energy - Coolidge,14270 Schaefer Hwy,Detroit,48227,42.392613,-83.177738,12847,0101000020E61000006A50340F60CB54C0027E8D2441324540
Rogue Valley Transportation District,3200 Crater Lake Ave,Medford,97504,42.36317,-122.85563,18888,0101000020E61000007FDE54A4C2B65EC0B471C45A7C2E4540
Alternative Vehicle Service Group - Tewksbury,20 Main St,Tewksbury,1876,42.629512,-71.270846,18892,0101000020E61000002810768A55D151C0433866D993504540
Alternative Vehicle Service Group - Lexington,Route 128 N,Lexington,2421,42.446147,-71.255103,18893,0101000020E61000002387889B53D051C0B11A4B581B394540
Clean Energy - Riverhead - National Grid,117 Doctors Path,Riverhead,11901,40.940028,-72.652774,18898,0101000020E6100000766B990CC72952C082A966D652784440
Clean Energy - Hewlett - National Grid,455 Mill Rd,Valley Stream,11581,40.648881,-73.707638,18900,0101000020E61000000ADAE4F0496D52C076FF58880E534440
Clean Energy - Seal Beach,3101 N Gate Rd,Seal Beach,90740,33.773004,-118.077029,18929,0101000020E6100000FDF50A0BEE845DC0AED689CBF1E24040
City of Victorville,16690 D St,Victorville,92395,34.53939073,-117.2961996,18943,0101000020E6100000A6C52AEFF4525DC0CB8E64C10A454140
Gas Technology Institute,1700 S Mount Prospect Rd,Des Plaines,60018,42.018189,-87.922158,19143,0101000020E6100000AAEFFCA204FB55C0CF12640454024540
Clean Energy - University of New Mexico,1140 University Blvd NE,Albuquerque,87102,35.095006,-106.6241186,20888,0101000020E6100000D2F4238FF1A75AC03E761728298C4140
Alternative Vehicle Service Group - Middleborough,12 Harding St Route 44,Middleborough,2346,41.901602,-70.975499,20905,0101000020E6100000F7915B936EBE51C00C01C0B167F34440
DTE Energy - Lynch,11043 French Rd,Detroit,48234,42.408541,-83.010061,20914,0101000020E6100000C37DE4D6A4C054C09E094D124B344540
Oklahoma Natural Gas - Guthrie Service Center,205 Sigma Pl,Guthrie,73044,35.858586,-97.425416,20916,0101000020E61000007DCC07043A5B58C0D8666325E6ED4140
Oklahoma Natural Gas - Mustang Service Center,680 E State Highway 152,Mustang,73064,35.391472,-97.711691,20917,0101000020E6100000E27668588C6D58C05DA626C11BB24140
Oklahoma Natural Gas - Clinton Service Center,500 W Commerce,Clinton,73601,35.479669,-98.983451,20918,0101000020E6100000FC8D76DCF0BE58C0D8F335CB65BD4140
Oklahoma Natural Gas - Bartlesville Service Center,3601 NE Indiana St,Bartlesville,74006,36.764066,-95.936657,20920,0101000020E610000072A43330F2FB57C026FE28EACC614240
Oklahoma Natural Gas - Claremore Service Center,1449 SW Country Club Rd,Claremore,74017,36.292974,-95.628285,20921,0101000020E610000050E449D235E857C0064A0A2C80254240
Oklahoma Natural Gas - Miami Service Center,11 S Treaty Rd,Miami,74354,36.874317,-94.841332,20922,0101000020E610000002452C62D8B557C01DAB949EE96F4240
United Parcel Service,1825 W McKinley Ave,Fresno,93728,36.764688,-119.832131,20923,0101000020E610000038BF61A241F55DC063D2DF4BE1614240
Trillium - City of Thousand Oaks,1993 Rancho Conejo Blvd,Thousand Oaks,91320,34.206237,-118.933606,20976,0101000020E61000005C566133C0BB5DC0D21C59F9651A4140
Trillium - Mount Diablo Unified School District,2352 Bisso Ln,Concord,94520,37.982071,-122.046184,21660,0101000020E61000004D66BCADF4825EC0CDACA580B4FD4240
Clean Energy - Dallas Fort Worth Airport South,2474 N Employee Rd,Grapevine,76051,32.876733,-97.039256,21975,0101000020E6100000FE0A992B834258C0782975C938704040
California Clean Fuels,15330 Woodruff Ave,Bellflower,90706,33.893124,-118.117101,21985,0101000020E61000000D5531957E875DC0E8A221E351F24040
Oklahoma Natural Gas - Tulsa Service Center West,7002 S Union Ave,Tulsa,74132,36.060878,-96.011698,22718,0101000020E61000006EDBF7A8BF0058C0E085ADD9CA074240
Oklahoma Natural Gas - Tillman's Producers Co-op,507 S Main St,Frederick,73542,34.384494,-99.017316,22719,0101000020E6100000A46C91B41BC158C00DC1711937314140
Oklahoma Natural Gas - Stillwater Service Center,3424 N Perkins Rd,Stillwater,74075,36.157402,-97.052963,22720,0101000020E61000007A39ECBE634358C09929ADBF25144240
Clean Energy - Seattle-Tacoma International Airport,19425 28th Ave S,SeaTac,98188,47.42816,-122.2995,23203,0101000020E6100000BA490C022B935EC049BA66F2CDB64740
Questar Gas - Flying J Travel Plaza - Springville,1460 N 1750 W,Springville,84663,40.187357,-111.640443,23211,0101000020E6100000F0FCA204FDE85BC09DD66D50FB174440
Questar Gas - 7-Eleven,7953 S Airport Rd,West Jordan,84088,40.607539,-111.996214,23212,0101000020E61000004F745DF8C1FF5BC0B40584D6C34D4440
Salt Lake City International Airport,600 N 3700 W,Salt Lake City,84116,40.781373,-111.979973,23213,0101000020E6100000A27DACE0B7FE5BC01C7DCC0704644440
Dominion Energy - City of Murray,4646 S 500 W,Murray,84123,40.671518,-111.906969,23219,0101000020E6100000185FB4C70BFA5BC07156444DF4554440
City of Corona,430 N Cota St,Corona,92880,33.886895,-117.571608,25425,0101000020E61000007288B83995645DC033FE7DC685F14040
City of Riverside,8095 Lincoln Ave,Riverside,92504,33.92399216,-117.4119492,25437,0101000020E610000041672D605D5A5DC0EE7A066045F64040
Clean Energy - San Francisco Airport,790 N McDonnell Rd,San Francisco,94128,37.63281472,-122.398352,25483,0101000020E6100000F51263997E995EC0E8699F1200D14240
Trillium,4915 W Industrial Blvd,Midland,79703,31.962765,-102.134214,25598,0101000020E6100000952A51F6968859C0C3BB5CC477F63F40
SoCalGas - Azusa Base,950 N Todd Ave,Azusa,91702,34.138664,-117.923766,25600,0101000020E610000008CA6DFB1E7B5DC0F790F0BDBF114140
Trillium - City of Placentia Corporate Yard,2999 E La Jolla St,Placentia,92806,33.860704,-117.865217,25601,0101000020E61000005EBC1FB75F775DC0A8C4758C2BEE4040
PSNC Energy,800 Gaston Rd,Gastonia,28056,35.251751,-81.094667,25673,0101000020E6100000AB402D060F4654C01EDE736039A04140
SoCalGas - Lancaster Base,44416 N Division St,Lancaster,93535,34.689589,-118.130371,25763,0101000020E610000032569BFF57885DC03657CD7344584140
Oklahoma Natural Gas - Anadarko Service Center,1700 E Central,Anadarko,73005,35.072194,-98.214673,25880,0101000020E61000006495D233BD8D58C0D57B2AA73D894140
Clean Energy - City of Burbank,810 N Lake St,Burbank,91502,34.182925,-118.319347,26305,0101000020E6100000D844662E70945DC0764F1E166A174140
Clean Energy - ARCO Cathedral City,36001 Date Palm Dr,Cathedral City,92234,33.786385,-116.458765,26306,0101000020E61000002AE3DF675C1D5DC051888043A8E44040
Clean Energy - Desert Hot Springs Mission Springs Water District,14501 Park Ln,Desert Hot Springs,92240,33.9432378,-116.4977441,26307,0101000020E6100000BAD1110ADB1F5DC0EDAC2704BCF84040
Clean Energy - 21st Century Oil - Garden Grove,12931 Garden Grove Blvd,Garden Grove,92843,33.775099,-117.906743,26308,0101000020E610000020B8CA13087A5DC0C614AC7136E34040
PG&E - Marysville Service Center,18 7th St,Marysville,95901,39.143012,-121.583657,26310,0101000020E610000037C5E3A25A655EC0C0779B374E924340
Clean Energy - Pasadena - Southern California Gas Co Base,3528 E Foothill Blvd,Pasadena,91107,34.149215,-118.077389,26312,0101000020E61000007D04FEF0F3845DC04C89247A19134140
Clean Energy - Yucca Valley - Park n Ride Transit Facility,7485 Kickapoo Trail,Yucca Valley,92284,34.118101,-116.45646,26314,0101000020E6100000A9FB00A4361D5DC0FD4FFEEE1D0F4140
Clean Energy - Oakland International Airport,7855 Earhart Rd,Oakland,94621,37.73137,-122.212097,26554,0101000020E61000001AA54BFF928D5EC044A33B889DDD4240
Clean Energy - Dallas Service Center,1616 Baylor St,Dallas,75226,32.780992,-96.775202,26654,0101000020E6100000CD72D9E89C3158C00438BD8BF7634040
Clean Energy - Dallas - Love Field Airport,8010 Denton Dr,Dallas,75235,32.83931674,-96.85319535,26655,0101000020E61000005A56ABC09A3658C086A41EBB6E6B4040
Southwest Transportation Agency,16644 S Elm Ave,Caruthers,93609,36.492055,-119.791174,26821,0101000020E610000083DC4598A2F25DC0A96A82A8FB3E4240
Clean Energy - Phoenix Sky Harbor Airport - Rental Car Center,2425 E Buckeye Rd,Phoenix,85034,33.435372,-112.033427,27026,0101000020E61000006BF3FFAA23025CC00CCC0A45BAB74040
Bluewater Area Transit,2021 Lapeer Ave,Port Huron,48060,42.977443,-82.447928,27653,0101000020E61000009DBD33DAAA9C54C0215A2BDA1C7D4540
Trillium - City of Berkeley,1101 2nd St,Berkeley,94710,37.88175,-122.306259,27973,0101000020E6100000C34659BF99935EC0BE9F1A2FDDF04240
Trillium - City of Visalia,439 N Cain St,Visalia,93292,36.333091,-119.274467,27975,0101000020E6100000333509DE90D15DC0C5CBD3B9A22A4240
Trillium - Visalia Unified School District,2425 W Houston Ave,Visalia,93291,36.341706,-119.318959,27976,0101000020E6100000F47002D369D45DC06A6CAF05BD2B4240
City of Asheville,45 McCormick Pl,Asheville,28801,35.588154,-82.550899,28133,0101000020E61000008B19E1ED41A354C07C8159A148CB4140
Dominion Energy - Sinclair,524 N 1500 W,Orem,84057,40.306765,-111.730637,28177,0101000020E6100000D80FB1C1C2EE5BC05A47551344274440
Victor Valley Transit Authority,100 N Sandstone Ct,Barstow,92311,34.886448,-117.079423,28523,0101000020E610000037E3344415455DC064CDC82077714140
Clean Energy - Downtown Tucson,1744 E Winsett St,Tucson,85719,32.214451,-110.945473,29168,0101000020E610000011902FA182BC5BC018CC5F21731B4040
Robertson's Palmdale Honda,455 Auto Vista Dr,Palmdale,93551,34.59343,-118.139497,29350,0101000020E6100000F838D384ED885DC08E3BA583F54B4140
Alternative Vehicle Service Group - Walpole,533 High Plain St,Walpole,2081,42.139911,-71.21695,30355,0101000020E610000080B74082E2CD51C0E2AC889AE8114540
Clean Energy - Canoga Park,7711 Canoga Ave,Canoga Park,91304,34.209938,-118.597508,30618,0101000020E61000004CC631923DA65DC00518963FDF1A4140
Clean Energy - Los Angeles Sanitation District,23924 Figueroa St,Carson,90745,33.807567,-118.284438,30619,0101000020E610000056EF703B34925DC0172AFF5A5EE74040
Kwik Trip #178,455 Concord St S,St. Paul,55125,44.883888,-93.03055,65669,0101000020E610000024B9FC87F44157C0D6A9F23D23714640
Clean Energy - University of California Los Angeles,741 Charles E Young Dr,Los Angeles,90095,34.067097,-118.447096,30620,0101000020E6100000098B8A389D9C5DC071546EA296084140
Trillium - City of Austin,2400 Business Center Dr,Austin,78744,30.213718,-97.738941,30622,0101000020E61000001B2B31CF4A6F58C008910C39B6363E40
Trillium,550 Milam St,Beaumont,77701,30.077123,-94.095962,30623,0101000020E610000029EACC3D248657C0F8C43A55BE133E40
Clean Energy - Long Beach Gas and Oil Department,2400 E Spring St,Long Beach,90755,33.81125792,-118.1627843,30626,0101000020E61000005833D70E6B8A5DC0B082AD4CD7E74040
Clean Energy - Santa Ana - SoCal Gas Base,3210 Maple St,Santa Ana,92707,33.703906,-117.863732,30628,0101000020E61000008E20956247775DC0A6BA809719DA4040
Clean Energy - San Leandro,8515 San Leandro St,Oakland,94621,37.746023,-122.188974,30629,0101000020E6100000D6726726188C5EC02B8881AE7DDF4240
Clean Energy - Port of Oakland,209 Brush St,Oakland,94607,37.798995,-122.28338,30630,0101000020E6100000CA15DEE522925EC07155D97745E64240
PG&E - Merced Service Center,624 W 15th St,Merced,95340,37.299692,-120.486137,30832,0101000020E610000009185DDE1C1F5EC0B96FB54E5CA64240
Clean Energy - Pomona Foothill Transit,1670 E 1st St,Pomona,91766,34.059216,-117.722362,30833,0101000020E6100000E277D32D3B6E5DC031B3CF6394074140
Kakco,4355 Lafayette Blvd,Indianapolis,46254,39.834688,-86.25018,31839,0101000020E61000004087F9F2029055C08C2E6F0ED7EA4340
Birmingham Jefferson County Transit Authority,3105 8th Ave N,Birmingham,35203,33.528486,-86.794315,32154,0101000020E610000039EE940ED6B255C06A32E36DA5C34040
NC CNG,2618 Hendersonville Rd,Arden,28704,35.44761,-82.507734,32226,0101000020E61000004E44BFB67EA054C068AED3484BB94140
Clean Energy - City of Santa Clarita,28283 Alta Vista Ave,Santa Clarita,91355,34.448887,-118.576562,32422,0101000020E610000072874D64E6A45DC0BE4C142175394140
Kern County Superintendent of Schools,705 S Union Ave,Bakersfield,93307,35.347789,-119.002508,32513,0101000020E61000009E7E501729C05DC04B74965984AC4140
City of San Bernardino,187 S Pershing Ave,San Bernardino,92408,34.098543,-117.288482,32669,0101000020E610000005DF347D76525DC0F71F990E9D0C4140
Oklahoma Natural Gas - Tulsa North Service Center,4821 E 66th St N,Tulsa,74117,36.250159,-95.921194,32670,0101000020E61000005FD1ADD7F4FA57C068E6C93505204240
Blue Energy Fuels - Tulsa Gas Technologies,4809 S 101 E Ave,Tulsa,74146,36.093705,-95.863764,32671,0101000020E610000094DDCCE847F757C0603C8386FE0B4240
Trillium,717 S Sylvania Ave,Sturtevant,53177,42.725613,-87.955958,32724,0101000020E61000005F96766A2EFD55C0B74604E3E05C4540
City of Riverside,5961 Acorn St,Riverside,92504,33.96068,-117.454372,32831,0101000020E6100000F60D4C6E145D5DC0EDF5EE8FF7FA4040
Questar Gas - LW's Travel Plaza,1674 W 1100 S,Perry,84302,41.485609,-112.057813,33204,0101000020E610000027124C35B3035CC056D28A6F28BE4440
Questar Gas - RB's Fuel Stop - Phillips 66,527 S 700 W,Woods Cross,84087,40.883673,-111.898809,33205,0101000020E61000006E162F1686F95BC0DAAD65321C714440
PG&E - Los Banos Service Center,940 I St,Los Banos,93635,37.058724,-120.843011,33323,0101000020E6100000C5CA68E4F3355EC0C2BE9D4484874240
Republic Services - Rainbow Disposal,17121 Nichols Ln,Huntington Beach,92647,33.71397,-117.996294,33387,0101000020E6100000DECCE847C37F5DC09E29745E63DB4040
City of San Fernando,120 N Macneil St,San Fernando,91340,34.283588,-118.43876,33425,0101000020E6100000C0B2D2A4149C5DC0DFC4909C4C244140
Kwik Trip #334,1271 River Dr N,Mankato,56001,44.18791,-94.012676,53003,0101000020E61000006C5CFFAECF8057C0B24B546F0D184640
Vectren Energy Delivery Eco-Fuel Center,1 N Main St,Evansville,47711,37.978725,-87.562598,33426,0101000020E6100000E1B20A9B01E455C088635DDC46FD4240
Airport Mart - Mobil,5979 S Howell Ave,Milwaukee,53207,42.935799,-87.910313,33428,0101000020E6100000EA07759142FA55C09450FA42C8774540
Clean Energy - City of Glendale,1713 Gardena Ave,Glendale,91204,34.123436,-118.258072,33533,0101000020E6100000DA006C4084905DC0149337C0CC0F4140
Clean Energy - College Park,4555 Edison Dr,College Park,30337,33.632374,-84.465773,33716,0101000020E610000007978E39CF1D55C09C6B98A1F1D04040
Clean Energy - Will Rogers World Airport,4424 Amelia Earhart Ln,Oklahoma City,73159,35.406026,-97.600694,33898,0101000020E6100000D2393FC5716658C0B0A9F3A8F8B34140
Clean Energy - Oklahoma State University,2221 W Lakeview Dr,Stillwater,74075,36.144924,-97.086989,33899,0101000020E610000027874F3A914558C0E833A0DE8C124240
Clean N' Green,149 SW Kenyon St,Seattle,98108,47.531286,-122.336979,34206,0101000020E6100000151C5E1091955EC04D69FD2D01C44740
Piedmont Natural Gas - Charlotte,112 Verbena St,Charlotte,28217,35.184065,-80.880391,34315,0101000020E6100000562C7E53583854C04BAB21718F974140
Valley Vista Services,1037 S Hatcher St,City of Industry,91748,34.003413,-117.924743,34320,0101000020E61000001E8D43FD2E7B5DC0CDB051D66F004140
Riverside Transit Agency - Hemet,700 Scaramella Cir,Hemet,92545,33.735948,-117.011173,34321,0101000020E61000004966F50EB7405DC03FC7478B33DE4040
Clean Energy - La Cienega,1004 S La Cienega Blvd,Los Angeles,90035,34.059388,-118.375858,34474,0101000020E6100000287CB60E0E985DC02EE3A6069A074140
Clean Energy - Republic Services,11101 W Executive Dr,Boise,83713,43.608903,-116.319821,34475,0101000020E6100000BDE47FF277145DC0D8B79388F0CD4540
City of Wasco,501 N F St,Wasco,93280,35.596857,-119.333783,34832,0101000020E61000007D3D5FB35CD55DC0C0B167CF65CC4140
ARCO,28662 Camino Capistrano,San Juan Capistrano,92675,33.54765566,-117.6738178,35007,0101000020E61000009C9DB1D41F6B5DC0AB95A69419C64040
City of Burlington,645 Pine St,Burlington,5401,44.461715,-73.215217,35055,0101000020E6100000C422861DC64D52C04C89247A193B4640
Dominion Energy - Evanston,38 Allegiance Cir,Evanston,82930,41.261358,-110.992557,35056,0101000020E61000009E9ACB0D86BF5BC02446CF2D74A14440
Clean Energy - Port of Long Beach,3400 I St,Wilmington,90744,33.78311,-118.222,35073,0101000020E610000091ED7C3F358E5DC0D595CFF23CE44040
City of Porterville,555 N Prospect St,Porterville,93257,36.075856,-119.043996,35075,0101000020E6100000E94999D4D0C25DC04A9A3FA6B5094240
Clean Energy - Ontario International Airport,3350 John Bangs Dr,Ontario,91761,34.06075086,-117.5789393,35131,0101000020E6100000A0F76B570D655DC0B27326AFC6074140
Clean Energy - Atlantic County Utilities Authority,6700 Delilah Rd,Egg Harbor Township,8234,39.417088,-74.538731,35309,0101000020E6100000D99596917AA252C0EBC6BB2363B54340
Clean Energy - Austin Bergstrom International Airport,3100 1/2 Spirit of Texas Dr,Austin,78719,30.209023,-97.67202,35316,0101000020E610000082902C60026B58C09F1C058882353E40
American Natural Gas - National Fuel - Buffalo,365 Mineral Springs Rd,Buffalo,14210,42.861455,-78.800352,35317,0101000020E6100000725298F738B353C0E3FC4D28446E4540
Clean Energy - Town of Brookhaven,350 Horseblock Rd,Yaphank,11980,40.800178,-72.921177,35318,0101000020E6100000F4346090F43A52C0467D923B6C664440
Questar Gas - Chevron,40 N 6300 W,Hurricane,84737,37.161682,-113.434692,35385,0101000020E61000004DF564FED15B5CC00A2DEBFEB1944240
Total Express,16401 N Rockwell Ave,Edmond,73013,35.637936,-97.639211,35418,0101000020E6100000950F41D5E86858C0757808E3A7D14140
Chickasaw Travel Stop,201 Latta Rd,Ada,74820,34.773291,-96.697633,35419,0101000020E610000010E7E104A62C58C044A51133FB624140
Clearwater Gas System,1020 N Hercules Ave,Clearwater,33765,27.975649,-82.75459,35593,0101000020E6100000DFF8DA334BB054C007600322C4F93B40
Clean Energy - Orange County Public Works,2023 W Collins Ave,Orange,92867,33.803166,-117.874464,35598,0101000020E6100000E161DA37F7775DC02BA1BB24CEE64040
Clean Energy - Newport Beach,592 Superior Ave,Newport Beach,92663,33.63214438,-117.9271508,35656,0101000020E6100000751D4F70567B5DC0A039671BEAD04040
Clean Energy - University of California San Diego,9413 Voigt Dr,La Jolla,92093,32.881413,-117.229925,35685,0101000020E610000019E25817B74E5DC077A22424D2704040
Semi-Service,4285 W 1385 S,Salt Lake City,84104,40.739411,-111.992133,35699,0101000020E61000001212691B7FFF5BC0BDA60705A55E4440
Dominion Energy - Moab Service Center,2450 S Highway 191,Moab,84532,38.536757,-109.511772,35786,0101000020E61000008BC058DFC0605BC015731074B4444340
Christensen Oil - Sinclair,334 E Riverside Dr,St. George,84790,37.081594,-113.576795,35787,0101000020E6100000C45F9335EA645CC061C614AC718A4240
Pilot - Naples,1521 S 1500 E,Naples,84078,40.43341,-109.498603,35907,0101000020E610000000AC8E1CE95F5BC033E197FA79374440
Questar Gas - Flying J Travel Plaza,1172 W 2100 S,Ogden,84401,41.229309,-112.00741,35936,0101000020E610000074EACA6779005CC0D8D64FFF599D4440
Clean Energy - Anaheim - Valero Station,2100 S Harbor Blvd,Anaheim,92802,33.795746,-117.914556,36292,0101000020E61000001497E315887A5DC01FF64201DBE54040
X3Energy,7984 US Highway 85,Fort Lupton,80621,40.115736,-104.81034,36294,0101000020E610000000A94D9CDC335AC0247CEF6FD00E4440
X3Energy,103 Hill St,Kersey,80644,40.392048,-104.564368,36295,0101000020E61000002CBAF59A1E245AC02A3BFDA02E324440
Clean Energy - Yellow Cab,86 Granby St,Bloomfield,6002,41.810889,-72.708142,36296,0101000020E610000023BBD232522D52C0D4D7F335CBE74440
Clean Energy - Metro Taxi,65 Industry Dr,West Haven,6516,41.290827,-72.98485,36300,0101000020E6100000CC5D4BC8073F52C09BE5B2D139A54440
PS Energy - East Point,2192 Sylvan Rd,East Point,30344,33.694504,-84.417883,36303,0101000020E61000007BA35698BE1A55C07978CF81E5D84040
DeKalb County - Seminole Road Landfill,4295 Clevemont Rd,Ellenwood,30294,33.652844,-84.253832,36304,0101000020E610000069AB92C83E1055C0E6B1666490D34040
PS Energy - Lithonia,2490 Lithonia Industrial Blvd,Lithonia,30058,33.712615,-84.125793,36305,0101000020E6100000354415FE0C0855C0CCD1E3F736DB4040
PS Energy - Tucker,1833 Tucker Industrial Rd,Tucker,30084,33.83633282,-84.20252641,36306,0101000020E6100000AFE15431F60C55C0593C2FF40CEB4040
Clean Energy - Atlantic City Jitney Association,6821 Delilah Rd,Egg Harbor Township,8406,39.410942,-74.53063,36309,0101000020E6100000B21188D7F5A152C0C34659BF99B44340
Newark Liberty International Airport - Wally Park,100 Lindbergh Rd,Newark,7114,40.691831,-74.184861,36310,0101000020E610000093533BC3D48B52C0F3AD0FEB8D584440
Giant Eagle - Ok Grocery,755 Beechnut Dr,Pittsburgh,15205,40.453507,-80.085371,36311,0101000020E6100000B741EDB7760554C0E8C072840C3A4440
Questar Gas - Flying J Travel Plaza - Scipio,810 N 800 W,Scipio,84656,39.255065,-112.116282,36312,0101000020E610000043C70E2A71075CC058AD4CF8A5A04340
Ditch Witch of Alaska,1800 W 47th Ave,Anchorage,99517,61.178048,-149.916588,36497,0101000020E6100000FE7C5BB054BD62C0218FE046CA964E40
City of Bossier City,2580 E Texas St,Bossier City,71111,32.527872,-93.714249,36549,0101000020E6100000D80C7041B66D57C0B03C484F91434040
Clean Energy - Republic Services,3015 E Comstock Ave,Nampa,83687,43.593304,-116.534414,36580,0101000020E61000009221C7D633225DC0024BAE62F1CB4540
CNG Calumet,130 State St,Calumet City,60409,41.622812,-87.527426,36581,0101000020E6100000D943FB58C1E155C037C7B94DB8CF4440
Public CNG - Henderson County,320 Williams St,Hendersonville,28792,35.317219,-82.453896,36582,0101000020E610000041F2CEA10C9D54C0BD55D7A19AA84140
City of Columbus - Fleet Management,4211 Groves Rd,Columbus,43232,39.930318,-82.885496,36584,0101000020E6100000492F6AF7ABB854C0A87004A914F74340
Arkansas Oklahoma Gas Corp,4419 Main St,Arkoma,74901,35.3546799,-94.4373794,36586,0101000020E61000006CBC2A06FE9B57C03786A52666AD4140
OnCue Express #105 - C-Store,800 S Broadway,Edmond,73034,35.646197,-97.48204,36587,0101000020E610000049D74CBED95E58C0FCE25295B6D24140
Van Eaton Ready Mix,3401 S Radio Rd,El Reno,73036,35.503479,-97.898682,36588,0101000020E61000003FE08101847958C0849CF7FF71C04140
Love's Country Store #5,203 S Main St,Kingfisher,73750,35.859467,-97.932226,36589,0101000020E6100000C79E3D97A97B58C0E17EC00303EE4140
OnCue Express #100 - C-Store,5900 W Reno Ave,Oklahoma City,73127,35.463717,-97.619498,36591,0101000020E6100000FE7BF0DAA56758C0B4CC22145BBB4140
OnCue Express #101 - C-Store,1 NW 23rd St,Oklahoma City,73103,35.494079,-97.511596,36592,0101000020E6100000EC3026FDBD6058C0F8510DFB3DBF4140
Clean Energy - Dallas Fort Worth Airport Rental Car Center,2425 Rental Car Rd,Irving,75261,32.852927,-97.036229,36622,0101000020E6100000AD8A7093514258C00D7041B62C6D4040
Blue Energy Fuels - City of Owasso,101 S Main St,Owasso,74055,36.264897,-95.854698,36773,0101000020E6100000397D3D5FB3F657C07DE71725E8214240
City of Grand Junction,2553 Riverside Pkwy,Grand Junction,81501,39.073697,-108.582361,36775,0101000020E6100000D15D126745255BC01B683EE76E894340
City of Bossier City,4520 Barksdale Blvd,Bossier City,71112,32.469998,-93.672804,36776,0101000020E61000008D2782380F6B57C0BB97FBE4283C4040
City of Springfield,1111 W Chestnut Expy,Springfield,65802,37.215692,-93.306068,36777,0101000020E610000089963C9E965357C02101A3CB9B9B4240
City of Socorro,3000 Old US Highway 85,Socorro,87801,33.984094,-106.887526,36778,0101000020E61000006116DA39CDB85AC04C18CDCAF6FD4040
Clean Energy - Town of Smithtown,85 Old Northport Rd,Kings Park,11754,40.873372,-73.274183,36779,0101000020E6100000A087DA368C5152C0FE9E58A7CA6F4440
Clean Energy - Downtown Dallas,100 N Riverfront Blvd,Dallas,75207,32.776989,-96.813018,37120,0101000020E6100000CC43A67C083458C0062D246074634040
Clean Energy - Parking Spot Houston,15868 International Plaza Dr,Houston,77032,29.948337,-95.331203,37121,0101000020E61000009355116E32D557C03596B036C6F23D40
DTE Energy - Allen,3751 Greenfield Rd,Melvindale,48122,42.29332,-83.178201,37620,0101000020E610000054C72AA567CB54C0A1A17F828B254540
Washington City Fleet Facility,1305 Washington Dam Rd,Washington City,84780,37.110952,-113.486891,38055,0101000020E6100000DF6DDE38295F5CC080B6D5AC338E4240
I-80 Fuels,5318 L St,Omaha,68117,41.212816,-95.996957,38059,0101000020E61000002BA1BB24CEFF57C06308008E3D9B4440
Metropolitan Utilities District,2615 S 64th Ave,Omaha,68106,41.235148,-96.011954,38060,0101000020E61000009CC3B5DAC30058C023DC6454199E4440
Lincoln Airport Authority,3520 NW 36th St,Lincoln,68524,40.849302,-96.771971,38484,0101000020E6100000779D0DF9673158C0B5368DEDB56C4440
Clean Energy - Dillon Transport,4600 Irving Blvd,Dallas,75247,32.80764,-96.896592,38487,0101000020E6100000BC7669C3613958C081785DBF60674040
American Natural Gas,16038 Highway 65 S,Damascus,72039,35.382404,-92.390824,38654,0101000020E61000007B9FAA42031957C007EE409DF2B04140
Clean N' Green,1001 Fairview St,Camden,8104,39.914001,-75.108896,39060,0101000020E610000093AAED26F8C652C072C119FCFDF44340
PSNC Energy,4211 Global St,Raleigh,27610,35.782022,-78.563001,39189,0101000020E610000061A7583508A453C05260014C19E44140
City of Rock Hill,757 S Anderson Rd,Rock Hill,29730,34.923072,-80.991091,39193,0101000020E61000000917F2086E3F54C039ED293927764140
Clean Energy - Riverside County Waste Management,1810 Agua Mansa Rd,Riverside,92509,34.02094,-117.385415,39196,0101000020E6100000D218ADA3AA585DC0D1967329AE024140
York County Natural Gas Authority,975 W Main St,Rock Hill,29730,34.935622,-81.042552,39655,0101000020E61000004818062CB94254C085B53176C2774140
Davidson County,925 N Main St,Lexington,27292,35.831853,-80.243198,40081,0101000020E6100000F81C588E900F54C02D0ABB287AEA4140
Dominon Energy - Weber State University,4760 Old Post Rd,Ogden,84403,41.176663,-111.947811,40319,0101000020E610000080F277EFA8FC5BC0E5B4A7E49C964440
Clean Energy - Tampa International Airport,5001 N Westshore Blvd,Tampa,33614,27.991812,-82.523467,40323,0101000020E61000004162BB7B80A154C0C5C72764E7FD3B40
DTE Energy - Padnos Iron and Metal,450 44th St SW,Wyoming,49548,42.884099,-85.676125,40831,0101000020E610000083C0CAA1456B55C091B6F1272A714540
DTE Energy - UBCR Inc/Schupan & Sons,4820 Holtz Dr,Wixom,48393,42.526187,-83.564626,40832,0101000020E61000002A1E17D522E454C0494A7A185A434540
Clean Energy - City of Torrance,20450 Madrona Ave,Torrance,90503,33.845681,-118.344675,40851,0101000020E6100000EC2FBB270F965DC09EEC66463FEC4040
Clean N' Green,1719 S Santa Fe St,Santa Ana,92705,33.724593,-117.853387,40876,0101000020E610000038F581E49D765DC08CF4A276BFDC4040
Northeast Oklahoma Public Facilities Authority - Tahlequah,853 N Woodard Ave,Tahlequah,74464,35.92304,-95.001973,40878,0101000020E6100000679E5C5320C057C02E73BA2C26F64140
Waste Management - Clean N' Green,350 Sumac Rd,Wheeling,60090,42.119053,-87.89901,41083,0101000020E6100000BA313D6189F955C0CFBEF2203D0F4540
Questar Gas - Mountainland One Stop,1175 S Main St,Heber City,84032,40.493191,-111.412469,41084,0101000020E6100000496760E465DA5BC03DD7F7E1203F4440
Clean Energy - City of Elk Grove eTran,9050 Elkmont Way,Elk Grove,95624,38.381451,-121.364358,41171,0101000020E61000004D8237A451575EC06403E962D3304340
Clean Energy - McCarran International Airport,4990 Paradise Rd,Las Vegas,89119,36.099338,-115.14859,41173,0101000020E6100000CFA0A17F82C95CC002A08A1BB70C4240
"""O"" Ring CNG Fuels Systems - Innovative Entrepreneurs Inc",5363 Route 36,Coolspring,15730,41.003761,-79.054352,41174,0101000020E6100000389ECF807AC353C008008E3D7B804440
"""O"" Ring CNG Fuels Systems - Innovative Entrepreneurs Inc",601 S Main St Ext,Punxsutawney,15767,40.933284,-78.987858,41176,0101000020E6100000E3C5C21039BF53C0A6F0A0D975774440
Alternative Vehicle Service Group - City of Nashua,11 Riverside Dr,Nashua,3062,42.748652,-71.49884,41356,0101000020E6100000F27B9BFEECDF51C0E10A28D4D35F4540
Chevron - Shop A Lott #3,796 Washington Ave,Mansfield,71052,32.029056,-93.713243,41449,0101000020E610000076C6F7C5A56D57C054E0641BB8034040
Chevron - Leebo's #9,6016 Old Boyce Hwy,Alexandria,71303,31.34545,-92.51807,41450,0101000020E61000007AC2120F282157C0386744696F583F40
CNG Trans,2727 Brice Rd,Reynoldsburg,43068,39.925631,-82.832025,41634,0101000020E6100000151DC9E53FB554C0F7949C137BF64340
Clean Energy - Las Vegas City Center,3683 Industrial Rd,Las Vegas,89109,36.12275,-115.179343,41672,0101000020E61000000FF10F5B7ACB5CC0C1CAA145B60F4240
Clean Energy - Akron Metropolitan Regional Transit Authority,416 Kenmore Blvd,Akron,44301,41.049608,-81.54079,41675,0101000020E61000003F00A94D9C6254C05BCF108E59864440
Clean Energy - Cleveland Hopkins International Airport,18899 Snow Rd,Brook Park,44142,41.402106,-81.828365,41678,0101000020E6100000AB09A2EE037554C040C39B3578B34440
Clean Energy - Stark Area Regional Transit Authority,1600 Gateway Blvd SE,Canton,44707,40.78093,-81.36797,41679,0101000020E61000002FFA0AD28C5754C08E3BA583F5634440
Great Lakes CNG - Ace Taxi Service,1798 E 55th St,Cleveland,44103,41.510241,-81.65296,41681,0101000020E61000002766BD18CA6954C0070ABC934FC14440
IGS CNG Services - City of Dublin,6351 Shier-Rings Rd,Dublin,43016,40.093708,-83.162608,41685,0101000020E61000005A84622B68CA54C0D1AFAD9FFE0B4440
Opis Energy,1126 Hammondville Rd,Pompano Beach,33069,26.234909,-80.138718,42087,0101000020E6100000755776C1E00854C03B8908FF223C3A40
Piedmont Natural Gas - High Point,2623 Uwharrie Rd,High Point,27263,35.923838,-80.007704,42090,0101000020E61000001903EB387E0054C0AA66D65240F64140
South Jersey Gas,142 S Main St,Glassboro,8028,39.697476,-75.112075,42091,0101000020E6100000C0EC9E3C2CC752C059DFC0E446D94340
Clean Energy - Syracuse - National Grid,7496 Round Pond Rd,Syracuse,13212,43.135479,-76.087402,42092,0101000020E6100000B8E68EFE970553C0BB25396057914540
Clean N' Green,100 Ransier Dr,Buffalo,14224,42.844172,-78.747585,42093,0101000020E6100000BB7EC16ED8AF53C07619FED30D6C4540
Conoco - Outpost Convenience Store,17699 S Muskogee Ave,Tahlequah,74464,35.853211,-94.989243,42094,0101000020E61000000133DFC14FBF57C032CB9E0436ED4140
Clean Energy - City of Chula Vista,1800 Maxwell Rd,Chula Vista,91911,32.596725,-117.019495,42473,0101000020E6100000E0DBF4673F415DC051DA1B7C614C4040
TruStar Energy - Lafayette,515 E Verot School Rd,Lafayette,70508,30.181429,-91.993631,42584,0101000020E6100000AC527AA697FF56C0C68B8521722E3E40
Clean Energy - Louis Armstrong New Orleans International Airport,1017 Airline Dr,Kenner,70062,29.983445,-90.262962,42585,0101000020E6100000CF85915ED49056C02B6A300DC3FB3D40
HPW Energy Inc,8246 Route 5,Westfield,14787,42.340677,-79.595958,42590,0101000020E610000088F2052D24E653C0ECBFCE4D9B2B4540
OnCue Express #107 - C-Store,5500 SE 29th St,Del City,73115,35.434767,-97.424626,42591,0101000020E610000001C287122D5B58C0A530EF71A6B74140
OnCue Express #326 - C-Store,1005 E Owen K Garriot,Enid,73701,36.3901658,-97.8651562,42592,0101000020E6100000A03B1CB85E7758C04382F3F3F0314240
Love's Travel Stop #274,102 W Coplin St,Okemah,74859,35.42076953,-96.30078203,42593,0101000020E6100000C4844503401358C06C40A5C6DBB54140
OnCue Express #314 - C-Store,1402 S Perkins Rd,Stillwater,74074,36.106651,-97.051781,42594,0101000020E610000078634161504358C0F88A6EBDA60D4240
TruStar Energy - Tulsa,5011 S Vandalia Ave,Tulsa,74135,36.090881,-95.923889,42595,0101000020E6100000960854FF20FB57C0F56915FDA10B4240
Questar Gas - Kaysville,80 N 600 W,Kaysville,84037,41.035784,-111.949467,42600,0101000020E610000066683C11C4FC5BC02BDCF29194844440
Clean N' Green,200 Rangos Ln,Washington,15301,40.208133,-80.273462,43071,0101000020E6100000B8ACC266801154C0F31B261AA41A4440
ASAP General Store 101,1501 N Airport Rd,Weatherford,73096,35.539229,-98.659654,43353,0101000020E61000003D2B69C537AA58C00307B47405C54140
GAIN Clean Fuel - Menomonie,2100 County Highway B,Menomonie,54751,44.907104,-91.85321,43525,0101000020E6100000B1A71DFE9AF656C00F09DFFB1B744640
Clean N' Green,3545 Fairfield Rd,Curtis Bay,21226,39.231108,-76.574575,43630,0101000020E6100000598638D6C52453C007EC6AF2949D4340
Clean N' Green,10050 Naples St NE,Blaine,55449,45.152388,-93.186274,43633,0101000020E61000001686C8E9EB4B57C0C426327381934640
City of Norman,2351 Goddard Ave,Norman,73069,35.246922,-97.461247,43651,0101000020E610000033182312855D58C0DA54DD239B9F4140
Clean N' Green,2749 N Loop 336 E,Conroe,77301,30.337826,-95.412461,43670,0101000020E61000000778D2C265DA57C00EBDC5C37B563E40
Waste Management - Clean N' Green,8652 S 4000 W,West Jordan,84088,40.594459,-111.986429,43686,0101000020E6100000DDB419A721FF5BC00CE8853B174C4440
All Waste Inc,33 Maxim Rd,Hartford,6114,41.741747,-72.659203,43699,0101000020E6100000359BC761302A52C0FB73D190F1DE4440
GAIN Clean Fuel - American Fueling Systems,4420 Buford Hwy NE,Chamblee,30341,33.873935,-84.297481,43705,0101000020E61000009C8BBFED091355C036EA211ADDEF4040
Waste Management - Clean N' Green,5050 W Pershing Rd,Stickney,60804,41.822729,-87.749999,43713,0101000020E61000001842CEFBFFEF55C0433C122F4FE94440
Waste Management - Clean N' Green,4040 S 80th St,Mesa,85212,33.342023,-111.663908,43723,0101000020E610000061E3FA777DEA5BC06ABDDF68C7AB4040
Trillium,1501 W Main Ave,De Pere,54115,44.452916,-88.093151,44591,0101000020E6100000BEA59C2FF60556C0E6EAC726F9394640
Conoco - Reno Partners,3701 W Reno Ave,Oklahoma City,73107,35.464849,-97.584064,44752,0101000020E610000057B1F84D616558C0064A0A2C80BB4140
Alagasco - St. Clair Operations Center,714 Industrial Park Dr,Pell City,35125,33.601083,-86.260778,44840,0101000020E61000000B613596B09055C03E97A949F0CC4040
Alagasco - Tuscaloosa Operations Center,5220 Metro Park Dr,Tuscaloosa,35405,33.161769,-87.55676,44841,0101000020E610000024EEB1F4A1E355C0D940BAD8B4944040
City of Temple,2625 E Avenue H,Temple,76501,31.082418,-97.315536,65699,0101000020E61000007B2DE8BD315458C00B9A965819153F40
Clean Energy - Commack Truck Garage,97 Crooked Hill Rd,Commack,11725,40.808807,-73.291022,44844,0101000020E6100000A81ABD1AA05252C050E3DEFC86674440
Natural Fuels LLC,591 E Monticello Pike,Huntsville,37756,36.411672,-84.52441,44846,0101000020E610000081ECF5EE8F2155C0E75608ABB1344240
Kwik Trip #761,506 Cass St,La Crosse,54601,43.808392,-91.249744,44847,0101000020E6100000D31742CEFBCF56C08C2C996379E74540
Kwik Trip #870,2002 Kwik Trip Way,La Crosse,54603,43.851658,-91.226449,44848,0101000020E6100000904DF2237ECE56C03AB01C2103ED4540
Kwik Trip #686,943 SE Frontage Rd,Sturtevant,53177,42.724204,-87.952181,44851,0101000020E6100000D8B79388F0FC55C0F2D077B7B25C4540
IGS CNG Services - Orrville,444 Hostetler Rd,Orrville,44667,40.853115,-81.769421,45572,0101000020E6100000C2F693313E7154C0105D50DF326D4440
Satterfield Oak Street Gulf,1305 E Oak St,Conway,72032,35.090978,-92.410437,46011,0101000020E610000060048D99441A57C0E753C72AA58B4140
Circleville CNG,315 W 470 S,Circleville,84723,38.164391,-112.278183,46139,0101000020E610000067D311C0CD115CC0DD60A8C30A154340
Love's Travel Stop #205,12225 N I-35 Service Rd,Oklahoma City,73131,35.593964,-97.436558,46191,0101000020E6100000A933F790F05B58C02C80290307CC4140
Love's Country Store #245,3233 SW 89th St,Oklahoma City,73159,35.377659,-97.573527,46193,0101000020E6100000DF1797AAB46458C021054F2157B04140
Love's Travel Stop #260,5317 SE 44th St,Norman,73072,35.182879,-97.499338,46194,0101000020E61000009AE95E27F55F58C006103E9468974140
Love's Travel Stop #263,24169 Highway 49,Lawton,73507,34.713769,-98.401654,46195,0101000020E6100000AF93FAB2B49958C006F357C85C5B4140
Love's Travel Stop #86,1326 S 4th St,Chickasha,73018,35.037308,-97.937172,46198,0101000020E610000086AE44A0FA7B58C089F02F82C6844140
GAIN Clean Fuel - City of Hamilton,2220 S Erie Blvd,Hamilton,45011,39.374016,-84.547382,46338,0101000020E6100000D21A834E082355C022179CC1DFAF4340
Trillium - Golden Eagle,1000 N Jefferson Ave,Casa Grande,85122,32.882283,-111.777453,46345,0101000020E6100000554B3ACAC1F15BC08C683BA6EE704040
Trillium - Golden Eagle,705 E Ajo Way,Tucson,85713,32.178328,-110.960207,46346,0101000020E6100000FA980F0874BD5BC005FBAF73D3164040
Premier Transportation,323 Cash Memorial Blvd,Forest Park,30297,33.607933,-84.372205,47234,0101000020E6100000179AEB34D21755C06094A0BFD0CD4040
Nopetro,1152 Capital Cir SW,Tallahassee,32304,30.437825,-84.354335,47236,0101000020E61000000135B56CAD1655C0075F984C15703E40
GAIN Clean Fuel - Marinette,2700 Cleveland Ave,Marinette,54143,45.08577,-87.648335,47238,0101000020E61000008A7615527EE955C02C7DE882FA8A4640
Clean N' Green,3831 Powerline Rd,Pompano Beach,33073,26.277172,-80.154367,47273,0101000020E610000039252026E10954C0EE5D83BEF4463A40
American Natural Gas - Fair Oaks Dairy,856 N 600 E,Fair Oaks,47943,41.010989,-87.276086,47276,0101000020E61000008B389D64ABD155C0D1CE691668814440
Piedmont Natural Gas - Goldsboro,250 Five Points Rd,Dudley,28333,35.32985597,-78.04070168,47282,0101000020E6100000811F38DB9A8253C02AC56DB838AA4140
South Jersey Gas,1211 N 2nd St,Millville,8332,39.411625,-75.03746,47288,0101000020E61000001FBAA0BE65C252C0A69BC420B0B44340
Love's Travel Stop #203,800 S Morgan Rd,Oklahoma City,73128,35.457897,-97.688507,47291,0101000020E61000004B04AA7F106C58C0E0F76F5E9CBA4140
Love's Travel Stop #452,1601 W Airline Rd,Pauls Valley,73075,34.707263,-97.242136,47292,0101000020E6100000CB4BFE277F4F58C0DE550F98875A4140
Chickasaw Travel Stop - Thackerville,22953 Brown Springs Rd,Thackerville,73459,33.73573,-97.14484,47293,0101000020E6100000C5C9FD0E454958C0D15790662CDE4040
Greer Commission of Public Works,115 Duke St,Greer,29650,34.936731,-82.233031,47295,0101000020E610000011FDDAFAE98E54C01F1329CDE6774140
Love's Travel Stop #468,9600 Longstreet Rd,Willis,77378,30.437821,-95.498724,47301,0101000020E6100000BD6E1118EBDF57C084807C0915703E40
Salt Lake Community College,4600 S Redwood Rd,Salt Lake City,84123,40.670029,-111.938861,47302,0101000020E61000005A9F724C16FC5BC0902FA182C3554440
City of Somerset,244 Chappells Dairy Rd,Somerset,42503,37.105466,-84.631599,47463,0101000020E6100000EC4B361E6C2855C0836BEEE87F8D4240
City of Tulsa - West Maintenance Yard,420 W 23rd St,Tulsa,74107,36.127685,-95.995789,47992,0101000020E6100000DC2DC901BBFF57C04A9869FB57104240
Hutch's C-Store #113,3710 Oklahoma Ave,Woodward,73801,36.434113,-99.427596,47994,0101000020E6100000A0F99CBB5DDB58C05DE2C80391374240
Bee Green CNG,3099 Duss Ave,Ambridge,15003,40.615075,-80.226421,47996,0101000020E61000002B8881AE7D0E54C029CB10C7BA4E4440
Sunoco - Midwest Clean Fuel,2501 Lafayette Rd,Crawfordsville,47933,40.074011,-86.9067,48004,0101000020E610000020D26F5F07BA55C0AA45443179094440
PSNC Energy,15 Overland Industrial Blvd,Asheville,28806,35.519793,-82.603744,48005,0101000020E610000000CADFBDA3A654C049D8B79388C24140
PSNC Energy,2541 Whilden Dr,Durham,27713,35.947924,-78.884114,48006,0101000020E6100000E3FBE25295B853C0F88BD99255F94140
PSNC Energy,121 Houston Rd,Troutman,28166,35.680223,-80.858077,48007,0101000020E6100000C91CCBBBEA3654C0567E198C11D74140
Clean Energy - City of Atlantic City,1100 N Albany Ave,Atlantic City,8401,39.364474,-74.471962,48008,0101000020E61000001BBD1AA0349E52C0041F8315A7AE4340
City of Ripon,339 Doak Blvd,Ripon,95366,37.7296744,-121.124083,48012,0101000020E610000055BFD2F9F0475EC03D5D82F865DD4240
Clean Energy - San Juan Capistrano - Stewart Family Inc - Shell,26571 Junipero Serra Rd,San Juan Capistrano,92675,33.52032,-117.667352,48013,0101000020E6100000E4BA29E5B56A5DC034BA83D899C24040
Clean Energy - Arcadia Foothill Transit,5640 Peck Rd,Irwindale,91006,34.10389,-118.006499,48014,0101000020E61000003B1DC87A6A805DC0D3307C444C0D4140
Waste Management - Clean N' Green,7501 Grade Ln,Louisville,40219,38.134634,-85.737722,48488,0101000020E61000008BE255D6366F55C0FF76D9AF3B114340
Hutch's C-Store #119,2001 E 7th St,Elk City,73644,35.40817,-99.379767,48496,0101000020E610000067463F1A4ED858C0AA9A20EA3EB44140
7-Eleven #77,1920 S Eastern Ave,Moore,73160,35.320857,-97.476753,48499,0101000020E610000046D1031F835E58C0A9D898D711A94140
Movo Hydroco,12125 Day St,Moreno Valley,92557,33.94366,-117.28033,48516,0101000020E61000009D853DEDF0515DC08D45D3D9C9F84040
EDCO Disposal - Buena Park,6762 Stanton Ave,Buena Park,90621,33.862442,-117.993016,48896,0101000020E6100000E719FB928D7F5DC03259DC7F64EE4040
Clean Energy - San Diego Airport - India Shell,3519 India St,San Diego,92103,32.73943,-117.177482,48901,0101000020E61000003C6876DD5B4B5DC034D769A4A55E4040
Clean Energy - Peoria Disposal,1113 N Swords Ave,West Peoria,61604,40.70153,-89.642572,48903,0101000020E6100000D2544FE61F6956C0D9942BBCCB594440
American Natural Gas,7507 Highway 31 E,Sellersburg,47172,38.374694,-85.746999,48904,0101000020E610000043C9E4D4CE6F55C0F30016F9F52F4340
Clean Energy - BWI Airport - Maryland Department of General Services,131 Aaronson Dr,Baltimore,21240,39.18695127,-76.65601422,48905,0101000020E61000001A271123FC2953C03F4CEB04EE974340
Kwik Trip #659,1990 Scott Rd NW,Rochester,55901,44.044438,-92.514584,48906,0101000020E6100000DFC2BAF1EE2057C08E59F624B0054640
Palo CNG,12600 State Route 66,Clarion,16214,41.17288848,-79.34168206,48908,0101000020E61000001D556E1EDED553C042BAAF3521964440
Clean Energy - Tyburn LLC,451 Tyburn Rd,Fairless Hills,19030,40.179253,-74.800407,48910,0101000020E6100000541F48DE39B352C0DE5A26C3F1164440
Clean Energy - Philadelphia International Airport - Wally Park,1 Scott Way,Lester,19113,39.87495,-75.262024,48911,0101000020E610000018B14F00C5D052C04ED1915CFEEF4340
Clean Energy - Quarles,211 Maury St,Richmond,23224,37.522579,-77.433474,48915,0101000020E6100000A56ABB09BE5B53C0C74961DEE3C24240
City of Milwaukee - Lincoln Ave,3921 W Lincoln Ave,Milwaukee,53215,43.00162,-87.963662,48916,0101000020E6100000789961A3ACFD55C080828B1535804540
Kwik Trip #457,2400 S Washburn St,Oshkosh,54904,43.985877,-88.583195,48917,0101000020E6100000350C1F11532556C07670B03731FE4540
Langdale Fuel,1628 James P Rogers Dr,Valdosta,31601,30.797235,-83.27464,49282,0101000020E61000001A8BA6B393D154C0003ACC9717CC3E40
Kwik Trip #623,7020 Highway 61 W,Minnesota City,55959,44.075729,-91.730504,49283,0101000020E61000003866D993C0EE56C0ED2DE57CB1094640
Kwik Trip #403,2270 46th St NW,Owatonna,55060,44.140319,-93.252685,49284,0101000020E610000025CCB4FD2B5057C0F30016F9F5114640
Freedom CNG,6000 Debbielou Gardens Dr,Houston,77034,29.6189478,-95.1903621,49286,0101000020E6100000777984E42ECC57C060EEEE5C739E3D40
Kwik Trip #679,4220 County Rd J,Sheboygan,53083,43.790766,-87.761889,49292,0101000020E6100000A88B14CAC2F055C0F564FED137E54540
Kwik Trip #396,W229 N2086 Redford Blvd,Waukesha,53186,43.05884469,-88.20480067,49293,0101000020E610000054F644741B0D56C0F08B093988874540
Dominion Energy - Exxon - Get 'N Go,1640 Elk St,Rock Springs,82901,41.613426,-109.230026,49294,0101000020E6100000B3CEF8BEB84E5BC00F4240BE84CE4440
Clean Energy - Quarles - Washington Dulles International Airport,45149 Old Ox Rd,Sterling,20166,38.97776,-77.438304,49302,0101000020E61000002F6D382C0D5C53C022AB5B3D277D4340
Lemoore Area School District,857 Iona Ave,Lemoore,93245,36.282461,-119.793046,49541,0101000020E6100000508E0244C1F25DC09EB29AAE27244240
Rocky Mountain C-Stores - Parachute,201 Columbine Ct,Parachute,81635,39.453505,-108.046509,49543,0101000020E61000000F7EE200FA025BC047C9AB730CBA4340
Enmarket Travel Center,7002 GA Highway 21,Port Wentworth,31407,32.189249,-81.192721,49545,0101000020E61000002810768A554C54C07DE6AC4F39184040
CNG America - Lehi,160 N 850 E,Lehi,84043,40.389797,-111.835339,49550,0101000020E6100000B284B53176F55BC01A8A3BDEE4314440
Sublette School District #1,10095 Highway 191,Pinedale,82941,42.8666284,-109.8923465,49551,0101000020E6100000CE8C7E341C795BC075E4EDADED6E4540
IGS CNG Services - Speedway,2500 Royal Ave,Monona,53713,43.043029,-89.352921,50036,0101000020E61000009544F641965656C0C9E369F981854540
Spire Inc,402 Cedar St,St. Joseph,64501,39.741662,-94.855413,50047,0101000020E6100000B0E42A16BFB657C0CD57C9C7EEDE4340
Piedmont Natural Gas - Winston-Salem,2300 Lowery St,Winston-Salem,27101,36.093837,-80.209155,50048,0101000020E6100000DF32A7CB620D54C0CF13CFD9020C4240
South Jersey Gas - Lindenwold,2500 Old Egg Harbor Rd,Lindenwold,8021,39.811305,-74.96135,50049,0101000020E61000009D8026C286BD52C0670A9DD7D8E74340
Clean N' Green,1224 Hayes Blvd,Bristol,19007,40.121713,-74.85754,50050,0101000020E6100000C2C073EFE1B652C0C03FA54A940F4440
Clean Energy - King of Prussia,113 N Gulph Rd,King of Prussia,19406,40.085404,-75.390522,50051,0101000020E61000009697FC4FFED852C04A79AD84EE0A4440
CNG 4 America - Bryan,2890 N Harvey Mitchell Pkwy,Bryan,77807,30.725159,-96.425728,50052,0101000020E6100000753FA7203F1B58C06B662D05A4B93E40
CNG 4 America - Katy,24985 Katy Fwy,Katy,77494,29.784231,-95.800795,50053,0101000020E610000038F3AB3940F357C06682E15CC3C83D40
CNG 4 America - Rosenberg,26111 Southwest Fwy,Rosenberg,77471,29.533464,-95.776052,50055,0101000020E6100000B5FF01D6AAF157C0E597C11891883D40
Waste Management - Clean N' Green,13793 Redwood Ave,Chino,91710,34.002873,-117.686257,50240,0101000020E6100000ABE97AA2EB6B5DC04D8578245E004140
Pensacola Energy - Pine Forest,6722 Pine Forest Rd,Pensacola,32526,30.477803,-87.304989,50259,0101000020E6100000F22895F084D355C042EE224C517A3E40
Trillium,550 Southrock Dr,Rockford,61102,42.22456,-89.109935,50261,0101000020E6100000E36BCF2C094756C0B0FECF61BE1C4540
OnCue Express #112 - C-Store,13600 N Western Ave,Oklahoma City,73114,35.608029,-97.530713,50268,0101000020E6100000F9A3A833F76158C08202EFE4D3CD4140
Zeit Energy - Atmos Energy,1540 Tech Center Pkwy,Arlington,76014,32.68081,-97.087869,50272,0101000020E610000043554CA59F4558C0176536C824574040
Star Valley Gas,122 N Washington St,Afton,83110,42.734146,-110.934037,50282,0101000020E610000041102043C7BB5BC09F3E027FF85D4540
Domino Express #1,1709 S Highway 183,Clinton,73601,35.490972,-98.967096,50646,0101000020E6100000EA059FE6E4BD58C038A0A52BD8BE4140
Northeast Oklahoma Public Facilities Authority - Stilwell,81075 Highway 59,Stilwell,74960,35.83873071,-94.63101433,50648,0101000020E610000012AAED8962A857C0E9CC24875BEB4140
Dandy Mini-Mart,474 Reuter Blvd,Towanda,18848,41.787689,-76.453971,50649,0101000020E6100000469561DC0D1D53C0A0353FFED2E44440
TruStar Energy - Houston,2109 McCue Rd,Houston,77056,29.74492336,-95.46390671,51035,0101000020E610000014F6C4A5B0DD57C0F8391D4CB3BE3D40
American Natural Gas,2125 Sanders Rd,Conway,72032,35.106478,-92.43572,51466,0101000020E6100000A48D23D6E21B57C02BDF3312A18D4140
American Natural Gas,1490 S County Rd 700 W,Frankfort,46041,40.185035,-86.53319,51470,0101000020E61000007923F3C81FA255C0C4CE143AAF174440
American Natural Gas,8701 Colonel H Weir Cook Memorial Dr,Indianapolis,46241,39.6998963,-86.31425446,51471,0101000020E61000009E14BDBE1C9455C0B38BB33396D94340
Piedmont Natural Gas - Spartanburg,501 W Blackstock Rd,Spartanburg,29301,34.94618,-81.996914,51479,0101000020E61000002CBB6070CD7F54C08C101E6D1C794140
Clean Energy - Palm Desert Burrtec Waste,41575 Eclectic St,Palm Desert,92260,33.744086,-116.358858,51599,0101000020E61000001C7A8B87F7165DC0ABB4C5353EDF4040
ReFuel Sacramento,8550 Fruitridge Rd,Sacramento,95826,38.525206,-121.387843,51600,0101000020E6100000E23E726BD2585EC0DCD440F339434340
Clean Energy - Orlando Airport,6155 Cargo Rd,Orlando,32827,28.442255,-81.300819,51604,0101000020E6100000FDC0559E405354C0137EA99F37713C40
Con Edison - Eastview Service Center,315 Old Saw Mill River Rd,Valhalla,10595,41.08183,-73.825183,51610,0101000020E6100000C58D5BCCCF7452C074EACA67798A4440
Trillium,1905 Prospect Ct,Appleton,54914,44.245683,-88.483089,51612,0101000020E6100000AC0320EEEA1E56C07217618A721F4640
Athens Utilities Board,1818 Holiday Dr,Athens,37303,35.467829,-84.644781,51621,0101000020E610000042058717442955C0698F17D2E1BB4140
Pensacola Energy - Ellyson Industrial Park,3320 Copter Rd,Pensacola,32514,30.527696,-87.198188,51875,0101000020E61000006B9DB81CAFCC55C0E23AC61517873E40
City of Augusta,3035 Tobacco Rd,Hephzibah,30815,33.392931,-82.11295,51876,0101000020E61000005305A3923A8754C0D34A21904BB24040
CNG Source Fueling,7005 Brookville Rd,Indianapolis,46239,39.754424,-86.047376,51878,0101000020E610000061A75835088355C0A4A833F790E04340
City of Columbus - CNG North,2333 Morse Rd,Columbus,43229,40.059311,-82.956922,51881,0101000020E6100000ABB4C5353EBD54C083A5BA8097074440
"GAIN Clean Fuel - Brookville - ""O"" Ring CNG Fuels Systems",228 Allegheny Blvd,Brookville,15825,41.167076,-79.097076,51882,0101000020E61000007F4E417E36C653C027F911BF62954440
Kwik Trip #887,4735 Converters Dr,Appleton,54913,44.288733,-88.477893,51885,0101000020E6100000307F85CC951E56C05323F433F5244640
American Natural Gas,523 Perry Pkwy,Perry,31069,32.492435,-83.740402,52202,0101000020E610000027F911BF62EF54C0F0332E1C083F4040
Ozinga Energy - Des Plaines,200 Jarvis Ave,Des Plaines,60018,42.012901,-87.924312,52203,0101000020E610000039D384ED27FB55C0F88A6EBDA6014540
Homewood Disposal Services - Gary,400 E Blaine St,Gary,46406,41.605516,-87.429389,52204,0101000020E6100000C710001C7BDB55C0359A5C8C81CD4440
American Natural Gas,1767 S Old US 41,Vincennes,47591,38.650869,-87.530561,52206,0101000020E61000001EE21FB6F4E155C0787DE6AC4F534340
CNG Services LLC,2950 N Ohio St,Wichita,67219,37.737099,-97.32375,52207,0101000020E61000001F85EB51B85458C00875914259DE4240
Memphis Light Gas and Water - South Center,3071 S Center Dr,Memphis,38109,35.066272,-90.052743,52211,0101000020E6100000F3052D24608356C0FC51D4997B884140
American Natural Gas,1606 Exchange Pkwy,Waco,76712,31.499498,-97.173412,52214,0101000020E6100000F92EA52E194B58C0DB6AD619DF7F3F40
GAIN Clean Fuel - Green Bay,1618 Velp Ave,Green Bay,54303,44.548802,-88.04744,52215,0101000020E61000006C21C841090356C05DFDD8243F464640
Kwik Trip #456,2145 County Highway Pb,Verona,53593,42.971256,-89.512884,52216,0101000020E610000011A96917D36056C09A05DA1D527C4540
City of Athens - Gas Department,1755 Trigreen Dr,Athens,35611,34.818951,-86.942404,52482,0101000020E6100000A7E7DD5850BC55C06403E962D3684140
Ozinga Energy - Lumber St,2222 S Lumber St,Chicago,60616,41.852403,-87.642494,52485,0101000020E61000001478279F1EE955C09301A08A1BED4440
Ozinga Energy - Mokena,19001 Old LaGrange Rd,Mokena,60448,41.54544,-87.849906,52486,0101000020E610000026AB22DC64F655C012F758FAD0C54440
American Natural Gas,510 S Post Rd,Indianapolis,46239,39.761489,-86.008987,52487,0101000020E6100000B5C5353E938055C0C2A1B77878E14340
American Natural Gas,290 Yost Dr,Lafayette,47941,40.37502677,-86.77827656,52488,0101000020E6100000601C7D48CFB155C0232390E000304440
Kwik Trip #681,4400 O'Day Ave NE,St. Michael,55376,45.217806,-93.598222,52490,0101000020E6100000DB6FED44496657C0B16F2711E19B4640
River Valley Transit,1550 W 3rd St,Williamsport,17701,41.237004,-77.038235,52495,0101000020E610000001A43671724253C0B682A625569E4440
Love's Travel Stop #294,8800 S Polk St,Dallas,75232,32.645801,-96.840907,52496,0101000020E61000008FFE976BD13558C0AF5C6F9BA9524040
Love's Travel Stop #281,200 Garden Acres Dr,Fort Worth,76140,32.598649,-97.317542,52497,0101000020E6100000D046AE9B525458C03D64CA87A04C4040
Love's Travel Stop #315,3940 N McCarty St,Houston,77013,29.797098,-95.267537,52498,0101000020E6100000145E82531FD157C0FEB4519D0ECC3D40
Love's Travel Stop #234,612 Pederson Rd,Katy,77493,29.779825,-95.881549,52499,0101000020E610000094347F4C6BF857C06B9A779CA2C73D40
GAIN Clean Fuel - Longview,131 Pittman Rd,Longview,75602,32.4532,-94.706348,52500,0101000020E610000015E63DCE34AD57C00B462575023A4040
Love's Travel Stop #486,7401 S Choctaw Rd,Choctaw,73020,35.395749,-97.267868,52501,0101000020E610000047E9D2BF245158C05D363AE7A7B24140
Love's Travel Stop #283,1990 E I-30,Rockwall,75087,32.917907,-96.419128,52502,0101000020E6100000A0353FFED21A58C07EE200FA7D754040
Love's Travel Stop #242,11361 I-35 Access Rd,Von Ormy,78073,29.31101,-98.617826,52503,0101000020E6100000952710768AA758C09DBAF2599E4F3D40
Kwik Trip #871,5821 Green Valley Rd,Oshkosh,54904,44.100798,-88.541833,52506,0101000020E610000030B95164AD2256C048C0E8F2E60C4640
American Natural Gas,9234 E Highland Dr,Jonesboro,72401,35.821863,-90.570635,52681,0101000020E6100000FDBCA94885A456C06F6589CE32E94140
Ryder Systems Inc,1440 Main St,Orange,92867,33.81151,-117.868017,52683,0101000020E6100000CFD72C978D775DC04030478FDFE74040
Trillium,5030 50th St,Tampa,33619,27.895255,-82.401746,52685,0101000020E610000020D3DA34B69954C09A94826E2FE53B40
DeKalb County - Central,3720 Leroy Scott Dr,Decatur,30032,33.771564,-84.239687,52686,0101000020E6100000B0912408570F55C0AE62F19BC2E24040
Clean Energy - ABC Disposal,1069 Shawmut Ave,New Bedford,2746,41.662033,-70.949338,52687,0101000020E610000067B62BF4C1BC51C0B7EF517FBDD44440
Clean Energy - Pembroke,10 Cooperative Way,Pembroke,3275,43.174856,-71.485967,52688,0101000020E6100000DBFB54151ADF51C033C170AE61964540
Get-Go - Cranberry,1737 State Route 228,Cranberry Township,16066,40.686369,-80.086299,52689,0101000020E61000005CAB3DEC850554C07EFE7BF0DA574440
American Natural - Energy Centre,73 E Carson St,Pittsburgh,15219,40.431028,-80.001116,52691,0101000020E610000026E0D748120054C084D4EDEC2B374440
CNG America - Bells Silver Creek - Sinclair,7102 Silver Creek Rd,Park City,84098,40.733902,-111.499306,52695,0101000020E6100000952C27A1F4DF5BC0083C3080F05D4440
Clean N' Green,2137 W Williams Dr,Phoenix,85027,33.690096,-112.105899,52992,0101000020E6100000766B990CC7065CC0DA8CD31055D84040
Reliance Alternative Fuel,2805 SE 32nd Ave,Ocala,34471,29.165471,-82.092855,52994,0101000020E610000049111956F18554C0B96FB54E5C2A3D40
PSNC Energy,2451 Schieffelin Rd,Apex,27502,35.723225,-78.83186,52999,0101000020E610000070B6B9313DB553C0265305A392DC4140
PSNC Energy,66 N Chatham Pkwy,Chapel Hill,27517,35.848953,-79.08542,53000,0101000020E6100000289B728577C553C0A96BED7DAAEC4140
Wayne Township Landfill,267 Fritz Rd,Lock Haven,17745,41.158541,-77.348758,53005,0101000020E6100000FA0D130D525653C09E094D124B944440
Dandy Mini-Mart,1131 Elmira St,Sayre,18840,41.966439,-76.534294,53006,0101000020E6100000BD1C76DF312253C01B4AED45B4FB4440
Kwik Trip #696,940 Baldwin Plaza Dr,Baldwin,54002,44.941101,-92.373596,53007,0101000020E6100000A77A32FFE81757C0D09D60FF75784640
Kwik Trip #326,3123 S Highway 51,Janesville,53546,42.634544,-89.030406,53008,0101000020E61000008AE6012CF24156C0BFEFDFBC38514540
IGS CNG Services - Bridgeport Exxon,50 Genesis Blvd,Bridgeport,26330,39.321599,-80.229699,53009,0101000020E6100000213B6F63B30E54C091B6F1272AA94340
City of Blythe - Palo Verde Valley Transit,201 W 14th Ave,Blythe,92225,33.603063,-114.598023,53312,0101000020E61000005FD0420246A65CC0BD361B2B31CD4040
Kwik Stop BP - 16th St,1215 E 16th St,Dubuque,52001,42.512003,-90.656218,53313,0101000020E6100000FA42C879FFA956C0193A765089414540
Gaubert Food Marts Inc,551 S Van Ave,Houma,70363,29.577119,-90.710145,53316,0101000020E6100000BF9A030473AD56C075E61E12BE933D40
Stirk CNG - Sapp Bros Travel Center,6001 Cornhusker Hwy,Lincoln,68507,40.862915,-96.637825,53320,0101000020E61000008FE4F21FD22858C02A1DACFF736E4440
GAIN Clean Fuel - Akron,1195 S Arlington St,Akron,44306,41.03974,-81.49017,53321,0101000020E6100000BEDEFDF15E5F54C0E92B483316854440
Kalmbach Clean Fuels,11790 Highway 4,Upper Sandusky,43351,40.9016698,-83.3450467,53322,0101000020E6100000EF05C13E15D654C03B657FEA69734440
CNG Fuel LLC,20511 Paint Blvd,Shippenville,16254,41.228814,-79.431538,53324,0101000020E6100000CD3E8F519EDB53C0F86EF3C6499D4440
Kwik Trip #499,15700 W Small Rd,New Berlin,53151,42.94468,-88.110351,53327,0101000020E61000002D05A4FD0F0756C0B7973446EB784540
Gordy's Express,2501 S Main St,Rice Lake,54868,45.474701,-91.734468,53328,0101000020E610000059FD118601EF56C073309B00C3BC4640
Cullman - Jefferson Gas,1550 County Rd 715,Hanceville,35077,34.132047,-86.815607,53619,0101000020E6100000E0D8B3E732B455C0784485EAE6104140
Trillium,1120 E Paige Ave,Tulare,93274,36.182337,-119.330196,53625,0101000020E6100000485167EE21D55DC0E5EC9DD156174240
American Natural Gas,2920 Silver Star Rd,Orlando,32808,28.577246,-81.422051,53626,0101000020E61000009F8F32E2025B54C02FBFD364C6933C40
American Fueling Systems - Covington Green Fuels Facility,10010 City Pond Rd,Covington,30014,33.618609,-83.843952,53627,0101000020E610000034D93F4F03F654C0710168942ECF4040
American Natural Gas,6533 State Rd 38 E,Lafayette,47905,40.373562,-86.780228,53628,0101000020E61000001ADB6B41EFB155C0A1832EE1D02F4440
Trillium - EZ Mart,338 State Highway 594,Monroe,71201,32.493311,-91.989868,53629,0101000020E6100000D8D64FFF59FF56C0E7E099D0243F4040
American Natural Gas,9960 Brookford St,Charlotte,28273,35.122229,-80.943483,53630,0101000020E61000003F558506623C54C0B7CF2A33A58F4140
PSNC Energy,1315 Old Oxford Rd,Durham,27704,36.052683,-78.873913,53631,0101000020E610000027A3CA30EEB753C010070951BE064240
City of Deming,116 N 8th St,Deming,88030,32.267665,-107.768747,53632,0101000020E61000007BF99D2633F15AC055A4C2D842224040
Trillium - Mirabito,90 Barlow Rd,Kirkwood,13904,42.102397,-75.839707,53633,0101000020E61000003ACE6DC2BDF552C0B11A4B581B0D4540
Trillium - Kenton Agriculture Campus Expansion,125 Bales Rd,Kenton,43326,40.632595,-83.595769,53634,0101000020E61000001FBE4C1421E654C07B4E7ADFF8504440
Trillium,402 N 1st St,Nashville,37207,36.178328,-86.774899,53636,0101000020E610000000ADF9F197B155C005FBAF73D3164240
American Natural Gas,2225 S Pullman Rd,Amarillo,79118,35.189976,-101.706309,53637,0101000020E6100000B6F7A92A346D59C03083312251984140
American Natural Gas,925 Patton Rd,Rosenberg,77471,29.56087077,-95.88803102,53641,0101000020E6100000F22E0F80D5F857C0AE6E0E3A958F3D40
American Natural Gas,9422 I-20 S Frontage Rd,Sweetwater,79556,32.449963,-100.447589,53642,0101000020E61000002843554CA51C59C07CB4386398394040
EVO CNG - Oak Creek,7155 1st St,Oak Creek,53154,42.914519,-87.914352,53645,0101000020E61000000F4240BE84FA55C00A4966F50E754540
IGS CNG Services - Charleston,10 Spring St,Charleston,25302,38.35893,-81.627186,53646,0101000020E610000094A0BFD0236854C0D2C6116BF12D4340
X3Energy,1200 S Sherman St,Longmont,80501,40.145567,-105.115579,53750,0101000020E6100000AE4676A565475AC03C3080F0A1124440
Kwik Star #732,324 Fletcher Ave,Waterloo,50701,42.488499,-92.367561,53751,0101000020E61000003E92921E861757C079909E22873E4540
Carrollton Utilities,225 6th St,Carrollton,41008,38.680886,-85.178098,53753,0101000020E6100000EA5E27F5654B55C0F226BF4527574340
Freedom Fuels,501 W 70th St,Shreveport,71106,32.441468,-93.765558,53754,0101000020E61000003C4CFBE6FE7057C0821DFF0582384040
Kwik Trip #662,3145 Dodd Rd,Eagan,55121,44.843646,-93.123553,53757,0101000020E6100000A794D74AE84757C05BB39597FC6B4640
Clean Energy - Lee's Summit School District,500 SE Transport Dr,Lee's Summit,64081,38.89357,-94.36045,53759,0101000020E6100000F775E09C119757C0E657738060724340
Clean N' Green,1450 Country Club Dr,Jackson,39209,32.34776,-90.247321,53760,0101000020E61000004CA7751BD48F56C0B16D5166832C4040
Clean N' Green,2712 Lowell Rd,Gastonia,28054,35.279545,-81.120447,53761,0101000020E6100000AF795567B54754C052616C21C8A34140
Trillium - Speedway LLC,521 S Main St,Mt. Vernon,43050,40.387298,-82.486446,53763,0101000020E6100000485167EE219F54C032E719FB92314440
Clean N' Green,910 W Pennsylvania Ave,Pen Argyl,18072,40.860729,-75.27151,53766,0101000020E61000005EA27A6B60D152C001DC2C5E2C6E4440
Clean N' Green,1428 Antioch Pike,Nashville,37013,36.081876,-86.686034,53767,0101000020E61000006C7C26FBE7AB55C0E529ABE97A0A4240
United Ag Co-op,909 S Wharton St,El Campo,77437,29.19012,-96.260909,53773,0101000020E6100000DA8EA9BBB21058C0C6504EB4AB303D40
Freedom CNG,7155 High Life Dr,Houston,77066,29.94421672,-95.52226647,53775,0101000020E6100000A21C58D06CE157C084BCDC2FB8F13D40
Kwik Trip #416,2618 Monroe Rd,De Pere,54115,44.453927,-87.995461,53777,0101000020E610000062DC0DA2B5FF55C0BDE2A9471A3A4640
Trillium,1121 Radisson Rd,Green Bay,54302,44.525122,-87.991577,53778,0101000020E6100000D09D60FF75FF55C07F349C3237434640
Kwik Trip #674,6107 3M Dr,Menomonie,54751,44.901294,-91.856412,53779,0101000020E6100000BAF94674CFF656C05F0A0F9A5D734640
Kwik Trip #422,9535 S 13th St,Oak Creek,53154,42.87166,-87.933821,53780,0101000020E61000005AD427B9C3FB55C09D9D0C8E926F4540
Kwik Trip #202,5339 Harding Ave,Plover,54467,44.42734,-89.515467,53781,0101000020E6100000B4CA4C69FD6056C0E622BE13B3364640
Kwik Trip #204,4701 Rib Mountain Dr,Wausau,54401,44.91394,-89.64836,53782,0101000020E61000003602F1BA7E6956C0CC4065FCFB744640
American Natural Gas,2323 W Pleasant Center Rd,Fort Wayne,46819,40.96013571,-85.16642795,60039,0101000020E6100000FB986AC1A64A55C0FC1519BAE57A4440
American Natural Gas,2240 N Michigan Ave,Greensburg,47240,39.357391,-85.510285,60040,0101000020E6100000EBA86A82A86055C03F7100FDBEAD4340
American Natural Gas,420 Stevens Way,Seymour,47274,38.958804,-85.837944,60043,0101000020E610000048F8DEDFA07555C012A3E716BA7A4340
American Natural Gas,2720 Needmore Rd,Dayton,45414,39.81954,-84.180457,60045,0101000020E61000006555849B8C0B55C0C6E1CCAFE6E84340
American Natural Gas,5343 Distribution Dr,Findlay,45840,41.089949,-83.639102,60046,0101000020E6100000B933130CE7E854C069A7E672838B4440
Love's Travel Stop #332,10145 Avon Lake Rd,Burbank,44214,40.995903,-81.993874,60084,0101000020E61000001096B1A19B7F54C0807EDFBF797F4440
Love's Travel Stop #200,6930 I-40 E,Amarillo,79118,35.191937,-101.760916,60085,0101000020E610000033C005D9B27059C039F2406491984140
Shop A Lott #20,201 Highway 3175,Natchitoches,71457,31.784139,-93.08731,60087,0101000020E610000048A7AE7C964557C0A5846055BDC83F40
Clean Energy - City of Columbia,1900 Lake Ridgeway Rd,Columbia,65202,38.971499,-92.294316,60113,0101000020E610000021ACC612D61257C0618C48145A7C4340
American Natural Gas,5625 SW Wenger St,Topeka,66609,38.96627012,-95.70049483,60117,0101000020E61000007E7744E8D4EC57C0414042BDAE7B4340
American Natural Gas,5800 Mesa Dr,Houston,77028,29.816425,-95.256051,60119,0101000020E6100000EBC6BB2363D057C005A3923A01D13D40
American Natural Gas,4155 Walden Ave,Lancaster,14086,42.922551,-78.628437,60157,0101000020E61000002BA6D24F38A853C030F2B22616764540
Spire Natural Gas Fueling Solutions,4231 Cypress Rd,St. Ann,63074,38.738623,-90.387748,60208,0101000020E6100000B9C5FCDCD09856C06589CE328B5E4340
Questar Gas - JR's Truck Stop,2635 N Fwy Dr,Cedar City,84721,37.72495,-113.056978,60210,0101000020E6100000DBA50D87A5435CC01B9E5E29CBDC4240
Trillium - Magic Truck Stop,4590 Fulton Industrial Blvd,Atlanta,30336,33.76147911,-84.53619239,60213,0101000020E610000080DAE2F9502255C0C304C12578E14040
EVO CNG - Tolleson,8301 W Sherman St,Tolleson,85353,33.440305,-112.23895,60253,0101000020E610000045D8F0F44A0F5CC0F5A10BEA5BB84040
American Natural Gas,19765 US Highway 287 E,Harrold,76364,34.071417,-99.009382,60257,0101000020E6100000F3CAF5B699C058C070B0373124094140
Trillium - San Jose Junction,2265 Junction Ave,San Jose,95131,37.386235,-121.917452,60258,0101000020E610000096E99788B77A5EC008C9022670B14240
Trillium - A&R Transport,1300 Meacham Rd,Fort Worth,76106,32.824385,-97.336689,60260,0101000020E610000012FB04508C5558C00F289B7285694040
American Natural Gas,3050 Fredericksburg Rd,Kerrville,78028,30.077401,-99.107463,60261,0101000020E6100000ECA17DACE0C658C07DAD4B8DD0133E40
Kentuckiana Cleanfuel,6200 Geil Ln,Louisville,40219,38.15677331,-85.68036824,60263,0101000020E610000060023B278B6B55C0F7AAD72511144340
GAIN Clean Fuel - Fairless Hills,375 Newbold Rd,Fallsington,19054,40.191991,-74.794534,60265,0101000020E6100000D86322A5D9B252C02C103D2993184440
Clean Energy - Fontana Truck Stop,14230 Valley Blvd,Fontana,92335,34.07117,-117.494601,60266,0101000020E610000069E4F38AA75F5DC0693A3B191C094140
Clean Energy - Pontoon Beach Flying J #645,1310 E Chain of Rocks Rd,Pontoon Beach,62040,38.76094,-90.066043,60267,0101000020E61000004D486B0C3A8456C0EF1B5F7B66614340
1 VRCNG,1 Valley Rd,Port Washington,11050,40.841918,-73.69519,60271,0101000020E610000066A032FE7D6C52C0F5F411F8C36B4440
GAIN Clean Fuel - Great River CNG,301 W Ferguson,Wood River,62095,38.86083,-90.103495,60426,0101000020E61000002B137EA99F8656C035B56CAD2F6E4340
American Natural Gas,1001 S 65th Ave,Phoenix,85043,33.439981,-112.197459,60681,0101000020E610000041D3122BA30C5CC042EE224C51B84040
New Jersey Natural Gas - Middletown Public Works,54 Kanes Ln,Middletown,7748,40.387923,-74.085991,60682,0101000020E6100000063065E0808552C0E02EFB75A7314440
New Jersey Natural Gas - Shore Point Distributing Co,850 Route 33 Business,Freehold,7728,40.247319,-74.24322,60684,0101000020E6100000EB6E9EEA908F52C0F7562426A81F4440
New Jersey Natural Gas - Waste Management,1298 Industrial Way,Toms River,8755,39.989815,-74.258336,60685,0101000020E610000049D8B793889052C08D0B0742B2FE4340
Trillium - Honda Parkway,19600 State Route 739,Marysville,43040,40.27821,-83.530973,60713,0101000020E6100000C7832D76FBE154C0C8B5A1629C234440
Arkansas Oklahoma Gas Corp,4315 Savannah St,Fort Smith,72903,35.335799,-94.384145,60818,0101000020E610000001FBE8D4959857C0C7832D76FBAA4140
Lafayette Consolidated Government,1515 E University Ave,Lafayette,70501,30.209862,-92.002378,60836,0101000020E6100000B60E0EF6260057C054AC1A84B9353E40
Norwich Public Utilities,168 W Town St,Norwich,6360,41.554634,-72.107836,60841,0101000020E61000003755F7C8E60652C0F59F353FFEC64440
Clean Energy - Rex Oil Conoco,6185 N Broadway,Denver,80216,39.808528,-104.988185,60947,0101000020E610000075594C6C3E3F5AC03DF372D87DE74340
Classic Clean Fuels,2501 William D Tate Ave,Grapevine,76051,32.908891,-97.097076,61118,0101000020E61000007F4E417E364658C07A50508A56744040
Town of Hornbeck,190 Nona St,Leesville,71446,31.151717,-93.265081,61119,0101000020E61000009F724C16F75057C04B3FE1ECD6263F40
Blue Energy Fuels,573 W 3rd St,Grove,74344,36.594241,-94.778273,61152,0101000020E610000007978E39CFB157C09E78CE16104C4240
Clean Energy - City of Commerce,5926 Sheila St,Commerce,90040,34.002506,-118.170811,61161,0101000020E610000003B34291EE8A5DC09A05DA1D52004140
Clean Energy - Fort Worth South,1075 Everman Pkwy,Fort Worth,76140,32.627591,-97.314361,61167,0101000020E6100000D388997D1E5458C0C921E2E654504040
Clean Energy - Mesquite,3735 Forney Rd,Mesquite,75149,32.789008,-96.652678,61168,0101000020E61000006534F279C52958C02524D236FE644040
CNG 4 America - Baytown,15021 E Fwy Service Rd,Cove,77523,29.830522,-94.804667,61169,0101000020E6100000E84A04AA7FB357C0C79BFC169DD43D40
Truck 'N Travel CFN #746,65 N Seneca Rd,Eugene,97402,44.0611,-123.139405,61175,0101000020E610000087F9F202ECC85EC08FE4F21FD2074640
Lewisville CNG,34089 State Route 78,Lewisville,43754,39.763889,-81.20266,61179,0101000020E6100000450DA661F84C54C01763601DC7E14340
Caldwell CNG,43925 Marietta Rd,Caldwell,43724,39.733274,-81.520186,61180,0101000020E6100000927538BA4A6154C0E98024ECDBDD4340
New Concord CNG,706 S Friendship Dr,New Concord,43762,39.983364,-81.7327,61192,0101000020E6100000DE718A8EE46E54C029081EDFDEFD4340
IGS CNG Services - Girard - Mr. Fuel,2840 Salt Springs Rd,Girard,44420,41.138468,-80.71885,61194,0101000020E6100000B22E6EA3012E54C072C5C551B9914440
IGS CNG Services - Marengo,461 State Route 61,Marengo,43334,40.370911,-82.829363,61195,0101000020E6100000CC608C4814B554C0035DFB027A2F4440
Bluewater Area Transit,516 S Parker St,Marine City,48039,42.713827,-82.500406,61196,0101000020E6100000382EE3A606A054C03B00E2AE5E5B4540
IGS CNG Services - Findlay - Speedway,3730 Speedway Dr,Findlay,45840,41.086807,-83.657436,61206,0101000020E6100000A3CD716E13EA54C02D08E57D1C8B4440
Bluewater Area Transit,1520 Hancock St,Port Huron,48060,43.001777,-82.437865,61342,0101000020E610000009C4EBFA059C54C047718E3A3A804540
Bluewater Area Transit,15041 Downey Rd,Capac,48014,43.024298,-82.932476,61343,0101000020E61000008313D1AFADBB54C0DAAD65321C834540
Clean Energy - Napa Petroleum,2008 Redwood Rd,Napa,94558,38.321254,-122.310848,61367,0101000020E6100000BA8102EFE4935EC0C7DADFD91E294340
Clean Energy - ReFuel San Jose,1170 N 4th St,San Jose,95112,37.360196,-121.903733,61368,0101000020E610000039D4EFC2D6795EC034130CE71AAE4240
Clean Energy - Lathrop Food Express Inc,1262 E Madruga Rd,Lathrop,95330,37.788561,-121.288932,61369,0101000020E610000025B1A4DC7D525EC056F31C91EFE44240
GAIN Clean Fuel - Sturtevant,611 S Sylvania Ave,Sturtevant,53177,42.728832,-87.955196,61371,0101000020E6100000485167EE21FD55C09E23F25D4A5D4540
GAIN Clean Fuel - Joliet,1747 Irish Indian Trail,Joliet,60436,41.490715,-88.141163,61372,0101000020E6100000F01989D0080956C00D54C6BFCFBE4440
GAIN Clean Fuel - Bolingbrook,550 Stevenson Dr,Bolingbrook,60440,41.682105,-88.063841,61373,0101000020E610000036C98FF8150456C013B875374FD74440
Stackhouse CNG,2635 US Route 322,Orwell,44076,41.535534,-80.844365,61387,0101000020E6100000C5387F130A3654C0B2F2CB608CC44440
Clean Energy - San Antonio Flying J #737,1815 N Foster Rd,San Antonio,78244,29.446369,-98.362307,61388,0101000020E61000002907B309309758C0BFF2203D45723D40
GAIN Clean Fuel - Columbus,1710 Atlas St,Columbus,43228,39.983902,-83.142073,61427,0101000020E610000041295AB917C954C0083C3080F0FD4340
City of Redlands,1270 W Park Ave,Redlands,92373,34.059452,-117.201618,61431,0101000020E61000003C122F4FE74C5DC045D7851F9C074140
PG&E - Martin Service Center,3100 Geneva Ave,Daly City,94014,37.705824,-122.411218,61447,0101000020E6100000B3614D65519A5EC0AF5DDA7058DA4240
GAIN Clean Fuel - Santa Ana,1601 E 1st St,Santa Ana,92701,33.745814,-117.84668,61481,0101000020E6100000598B4F0130765DC0117349D576DF4040
GAIN Clean Fuel - Middleton Farmers Co-op Co,1755 Pleasant View Rd,Middleton,53562,43.09407,-89.534911,61534,0101000020E610000052D158FB3B6256C072C45A7C0A8C4540
Tesei Petroleum,1300 S Gateway Dr,Madera,93637,36.950158,-120.04964,61537,0101000020E6100000B324404D2D035EC0320400C79E794240
GAIN Clean Fuel - Indianapolis,8781 Zionsville Rd,Indianapolis,46268,39.913404,-86.259803,61611,0101000020E6100000C619C39CA09055C08E041A6CEAF44340
Sevier County Utility District,420 Robert Henderson Rd,Sevierville,37862,35.869632,-83.540182,61650,0101000020E6100000D3F8855792E254C00DC7F31950EF4140
Trillium,13233 Cornhusker Rd,Omaha,68138,41.161411,-96.120182,61661,0101000020E610000058E4D70FB10758C07A1B9B1DA9944440
Shell - Food Mart #23,1600 US Highway 11 S,Meridian,39307,32.347423,-88.736754,61680,0101000020E61000009FCC3FFA262F56C069705B5B782C4040
L T Verrastro Inc,700 Moosic Rd,Old Forge,18518,41.3634,-75.730103,61681,0101000020E610000089EDEE01BAEE52C0E6AE25E483AE4440
Waste Pro,400 S Bay St,Bunnell,32110,29.46307,-81.255936,61682,0101000020E61000009F776341615054C03BC269C18B763D40
EZ Go #58,Mile 66.5 Indian Nation Turnpike,McAlester,74501,34.907926,-95.825663,61707,0101000020E61000001BA19FA9D7F457C014984EEB36744140
First Alt Fuel Inc,425 N Bois-D-Arc,Tyler,75702,32.354553,-95.302495,61853,0101000020E6100000060DFD135CD357C06FD921FE612D4040
GAIN Clean Fuel - Calera,8280 Highway 25,Calera,35040,33.09335,-86.792432,61864,0101000020E61000007313B534B7B255C0728A8EE4F28B4040
Piedmont Natural Gas - Greensboro,2611 Greengate Dr,Greensboro,27406,36.02452,-79.797974,61868,0101000020E6100000BB438A0112F353C0890CAB7823034240
Hutch's C-Store #120,610 NE Highway 66,Sayre,73662,35.309665,-99.631741,61871,0101000020E6100000B6A2CD716EE858C0A1DB4B1AA3A74140
Elizabethtown Gas,520 Green Ln,Union,7083,40.676438,-74.248373,61897,0101000020E6100000670DDE57E58F52C0C5E2378595564440
CNGnGo,4333 W 530 Rd,Pryor Creek,74361,36.249164,-95.333829,62063,0101000020E6100000355D4F745DD557C097AB1F9BE41F4240
OnCue Express #116 - C-Store,3901 Northwest Expy,Oklahoma City,73112,35.536179,-97.587006,62065,0101000020E610000092239D81916558C0A7E67283A1C44140
Bennett Steel - CNGnGo,2210 Industrial Rd,Sapulpa,74066,36.025034,-96.104651,62066,0101000020E6100000999F1B9AB20658C0DFA4695034034240
CLEANCOR,255 E Commercial Ave,El Centro,92243,32.794671,-115.539473,62105,0101000020E6100000CD04C3B986E25CC0310A82C7B7654040
GAIN Clean Fuel - Carthage,1058 Highway 59 S,Carthage,75633,32.181782,-94.334174,62106,0101000020E61000001B4B581B639557C03080F0A144174040
St. Cloud Metro Bus,665 Franklin Ave,St. Cloud,56304,45.575899,-94.149195,62108,0101000020E6100000836E2F698C8957C04966F50EB7C94640
IGS CNG Services - City of Dayton,1830 E Monument Ave,Dayton,45402,39.771034,-84.165929,62112,0101000020E6100000501DAB949E0A55C0520DFB3DB1E24340
Muncie Sanitary District,900 E Centennial Ave,Muncie,47303,40.20875,-85.376303,62230,0101000020E6100000BF982D59155855C01F85EB51B81A4440
American Natural Gas - ampCNG,107 Tilton Rd SE,Dalton,30721,34.65542,-84.978235,62257,0101000020E61000005D33F9669B3E55C0799274CDE4534140
Piedmont Natural Gas - Nashville,541 Spence Ln,Nashville,37210,36.1425,-86.722855,62264,0101000020E610000001309E4143AE55C00AD7A3703D124240
Mannford Compressed Natural Gas,210 E Trower Blvd,Mannford,74044,36.127057,-96.352955,62266,0101000020E61000006B7D91D0961658C02BDD5D6743104240
Sparq - Trinidad,806 E Goddard Ave,Trinidad,81082,37.183969,-104.499646,62268,0101000020E6100000F1643733FA1F5AC0293DD34B8C974240
CHS Inc,1833 130th St,Fairmont,56031,43.672641,-94.51018,62310,0101000020E6100000B1C403CAA6A057C07079AC1919D64540
Oklahoma City Solid Waste Division,11501 N Portland Ave,Oklahoma City,73120,35.58558,-97.58744,62313,0101000020E61000002F17F19D986558C089981249F4CA4140
Northeast Mississippi Natural Gas District,689 Hodges Dr,Mantachie,38855,34.324116,-88.492641,62381,0101000020E6100000CDEA1D6E871F56C01F0E12A27C294140
High Plains Bioenergy,3271 US Highway 54,Guymon,73942,36.7065958,-101.4432073,62382,0101000020E61000004DB626825D5C59C0D83E2EBB715A4240
American Natural Gas,4100 Heckscher Dr,Jacksonville,32226,30.40993,-81.558774,62410,0101000020E6100000BAF605F4C26354C037A6272CF1683E40
American Natural Gas,9711 Mining Dr,Jacksonville,32257,30.186846,-81.56631,62411,0101000020E610000075594C6C3E6454C06F63B323D52F3E40
Trillium - Dillon Transport,1009 E Canal St,Mulberry,33860,27.89457,-81.964574,62412,0101000020E61000009A249694BB7D54C094FB1D8A02E53B40
All American Waste,19 Wheeler St,New Haven,6512,41.294864,-72.899122,62443,0101000020E61000004E4700378B3952C04562821ABEA54440
Gibson County Utility District,657 N College St,Trenton,38382,36.00506672,-88.94796719,62445,0101000020E6100000C9AE937EAB3C56C05859BA06A6004240
American Natural Gas,4011 16th St SW,Canton,44710,40.783185,-81.420644,62451,0101000020E61000008DD0CFD4EB5A54C0E0DBF4673F644440
American Natural Gas,330 Farm to Market 1189,Brock,76087,32.698811,-97.959199,62454,0101000020E6100000C7D63384637D58C0E38A8BA372594040
GAIN Clean Fuel - Nexus Natural Gas,380 Grand Island Blvd,Tonawanda,14150,42.983441,-78.91425,62471,0101000020E61000008D976E1283BA53C0D4450A65E17D4540
American Natural Gas,1130 W Highway 2570,Newport,37821,35.972547,-83.247995,62538,0101000020E610000094A46B26DFCF54C055698B6B7CFC4140
GAIN Clean Fuel - Aurora,19401 E 32nd Pkwy,Aurora,80011,39.75968,-104.761488,62543,0101000020E6100000F9122A38BC305AC070B6B9313DE14340
GAIN Clean Fuel - Fort Wayne,10317 Bluffton Rd,Fort Wayne,46809,40.989957,-85.168267,62544,0101000020E6100000BF7FF3E2C44A55C01FB935E9B67E4440
GAIN Clean Fuel - Gary,6700 W 15th Ave,Gary,46406,41.58805,-87.419547,62545,0101000020E6100000A208A9DBD9DA55C0D734EF3845CB4440
Refuel CNG,1330 W Jackson St,Thomasville,31792,30.818047,-83.999657,62603,0101000020E6100000EB8D5A61FAFF54C0469737876BD13E40
Martindale Propane,251 Commerce Dr,New Holland,17557,40.087252,-76.095113,62618,0101000020E61000002A1BD654160653C05B41D3122B0B4440
Domino Express #9,1303 W 3rd St,Elk City,73644,35.41212,-99.419965,62741,0101000020E6100000BD1DE1B4E0DA58C086032159C0B44140
Stirk CNG - Clean Energy - Sapp Bros Travel Center,7120 E 49th Ave,Denver,80022,39.78448,-104.904545,62773,0101000020E6100000A930B610E4395AC0DC2E34D769E44340
Clean Energy - Albuquerque Flying J #689,9911 Avalon Rd NW,Albuquerque,87105,35.079896,-106.746225,62775,0101000020E6100000499D8026C2AF5AC0658A39083A8A4140
Independence Fuel Systems,902 Mobile Dr,Longview,75604,32.496167,-94.80566,62776,0101000020E610000081ECF5EE8FB357C05E2D7766823F4040
GAIN Clean Fuel - Johnstown,157 Vo Tech Dr,Johnstown,15904,40.4127142,-78.8372499,62906,0101000020E610000013C59A8095B553C023CCA3D1D3344440
GAIN Clean Fuel - Forrest City,3400 Commerce Dr,Forrest City,72335,35.042134,-90.810704,62907,0101000020E610000021AF0793E2B356C05B069CA564854140
GAIN Clean Fuel,725 Legionnaire Dr,Fredericksburg,17026,40.45023131,-76.41577569,62908,0101000020E610000066C1A3119C1A53C0E90AF82DA1394440
GAIN Clean Fuel - Smyrna,4960 Plant Atkinson Rd,Smyrna,30080,33.8324679,-84.4810285,62909,0101000020E610000069FCC22BC91E55C022BCE24E8EEA4040
GAIN Clean Fuel - Sanford,2509 Cox Mill Rd,Sanford,27332,35.458359,-79.108203,62910,0101000020E6100000109546CCECC653C0E469F981ABBA4140
GAIN Clean Fuel - Tampa,8346 E Martin Luther King Blvd,Tampa,33619,27.98136,-82.360376,62911,0101000020E6100000DA907F66109754C0419AB1683AFB3B40
GAIN Clean Fuel - Des Moines,1205 NE Broadway Ave,Des Moines,50313,41.64338,-93.603529,62912,0101000020E6100000014C1938A06657C043739D465AD24440
GAIN Clean Fuel - St. Louis,1400 S 2nd St,St. Louis,63104,38.611125,-90.193753,62914,0101000020E61000001FA0FB72668C56C04E621058394E4340
Kwik Trip #210,1506 Black Ave,Eau Claire,54703,44.83312,-91.44934,62915,0101000020E610000038328FFCC1DC56C05FD218ADA36A4640
Kwik Star #215,100 W 65th St,Davenport,52806,41.585882,-90.573456,62916,0101000020E61000007A6CCB80B3A456C054A86E2EFECA4440
Kwik Trip #306,105 W Tyranena Park Rd,Lake Mills,53551,43.09014067,-88.90997949,62917,0101000020E61000002B659D1A3D3A56C042D8BEBA898B4540
3G CNG,3529 Combine St,Paso Robles,93446,35.6451,-120.653671,62933,0101000020E6100000FED5E3BED5295EC0265305A392D24140
TruStar Energy - Orlando,8520 Exchange Dr,Orlando,32809,28.441552,-81.411516,62934,0101000020E6100000F8713447565A54C0C07B478D09713C40
Love's Travel Stop #614,12605 Central Ave NW,Albuquerque,87121,35.064935,-106.784483,62996,0101000020E610000026512FF834B25AC0D1AE42CA4F884140
Love's Travel Stop #553,1055 N Grand Canyon Blvd,Williams,86046,35.263617,-112.194139,62997,0101000020E610000034F8FBC56C0C5CC0B7D5AC33BEA14140
Kwik Trip #222,3027 E 2nd St,Superior,54880,46.698029,-92.035851,63026,0101000020E6100000D921FE614B0257C06D54A70359594740
Kwik Trip #242,980 S Hickory St,Fond Du Lac,54935,43.751366,-88.462334,63027,0101000020E61000000C7558E1961D56C0C5A9D6C22CE04540
Kwik Trip #673,6325 Pepsi Way,Windsor,53598,43.194047,-89.33686,63028,0101000020E610000028D53E1D8F5556C086713788D6984540
Kwik Trip #250,1509 10th Pl NE,Austin,55912,43.675892,-92.953638,63029,0101000020E6100000438EAD67083D57C063D009A183D64540
Flint River Fuel Center,2880 State Highway 49 S,Oglethorpe,31068,32.258717,-84.085849,63210,0101000020E61000003CD9CD8C7E0555C0A9F57EA31D214040
Consumers Energy,11797 Farmington Rd,Livonia,48150,42.36969831,-83.3727889,63227,0101000020E6100000F573F9C5DBD754C0116B3346522F4540
American Natural Gas,6580 Kansas Ave,Kansas City,66111,39.088255,-94.732123,63276,0101000020E610000090696D1ADBAE57C0AF5A99F04B8B4340
American Natural Gas,4200 Duncanville Rd,Dallas,75236,32.693705,-96.910233,63277,0101000020E61000005CAFE941413A58C02D095053CB584040
American Natural Gas,650 E Centre Park Blvd,DeSoto,75115,32.62423616,-96.84305342,63278,0101000020E610000095EB5496F43558C01F1772F8E64F4040
JEM Energy,5925 Stockberger Pl,Indianapolis,46241,39.719763,-86.264129,63446,0101000020E6100000363B527DE79055C078EFA83121DC4340
City of Deming,1315 W Pine St,Deming,88030,32.267588,-107.774524,63447,0101000020E6100000E57D1CCD91F15AC0AA66D65240224040
CNG@WORK,401 Kindleberger Rd,Kansas City,66115,39.149026,-94.617479,63576,0101000020E6100000E0BDA3C684A757C07920B24813934340
IGS CNG Services - Duchess BP,3909 Alum Creek Dr,Obetz,43207,39.888256,-82.930933,63577,0101000020E61000001971016894BB54C0E63C635FB2F14340
Clean Energy - Winslow Flying J #612,404 Transcon Ln,Winslow,86047,35.01643,-110.675005,63579,0101000020E6100000BCE82B4833AB5BC02E56D4601A824140
Sparq - Pueblo,620 W 4th St,Pueblo,81003,38.270299,-104.615724,63599,0101000020E610000030D7A20568275AC01D925A2899224340
Sparq - U Pump It,156 N Campus Dr,Garden City,67846,37.962455,-100.846437,63600,0101000020E6100000F54718062C3659C0936FB6B931FB4240
City of Tulsa,7952 E 33rd St S,Tulsa,74145,36.113892,-95.889587,63602,0101000020E610000098FC4FFEEEF857C055A35703940E4240
Bubble City Truck Stop,3125 Bloomfield Hwy,Farmington,87401,36.71838,-108.167694,63603,0101000020E6100000116F9D7FBB0A5BC0DD0C37E0F35B4240
GAIN Clean Fuel - Baltimore,1601 62nd St,Baltimore,21237,39.317115,-76.531988,63627,0101000020E6100000537765170C2253C018096D3997A84340
Kimble Company,2295 Boliver Rd,Canton,44706,40.77312513,-81.39494493,63628,0101000020E61000008B8419C7465954C06A88A6C3F5624440
Clean Energy - Kansas City Fleet Services Division,5350 Municipal Ave,Kansas City,64120,39.13353,-94.523119,63664,0101000020E6100000A33A1DC87AA157C07784D38217914340
OnCue Express #45 - Truck Stop,7850 Acre Rd,Billings,74630,36.535661,-97.33916,63665,0101000020E6100000210725CCB45558C00F5F268A90444240
Speedy Fuel,1492 S Lorena St,Los Angeles,90023,34.01665,-118.208679,63673,0101000020E61000002B172AFF5A8D5DC03CBD529621024140
Clean Energy - La Guardia Airport,Marine Air Terminal - Building 37,Flushing,11371,40.77,-73.89,63674,0101000020E6100000295C8FC2F57852C0C3F5285C8F624440
Clean Energy - Houston Valero,9221 Wallisville Rd,Houston,77013,29.793882,-95.266015,63680,0101000020E6100000B54FC76306D157C011E2CAD93BCB3D40
Clean Energy - Waco Flying J #739,2409 S New Rd,Waco,76711,31.507287,-97.145928,63681,0101000020E610000086E464E2564958C09BAF928FDD813F40
CNG 4 America - Austin,907 E St Johns Ave,Austin,78752,30.330588,-97.701649,63757,0101000020E61000005A1135D1E76C58C03673486AA1543E40
X3Energy,14827 Weld County Rd 42,Gilcrest,80623,40.289906,-104.775176,63817,0101000020E61000003929CC7B9C315AC00475CAA31B254440
Waste Management - Santa Ana Hauling,1800 S Grand Ave,Santa Ana,92705,33.723863,-117.851938,63858,0101000020E61000000F0EF62686765DC069E4F38AA7DC4040
Waste Management - South Sound - Public,325 C St NW,Auburn,98001,47.31108,-122.23351,63887,0101000020E61000007E52EDD3F18E5EC047382D78D1A74740
Waste Management - Conroe,2749 N Loop 336 E,Conroe,77301,30.337826,-95.412461,63992,0101000020E61000000778D2C265DA57C00EBDC5C37B563E40
City of Douglas,1331 Pope Dr,Douglas,31533,31.490414,-82.865433,64019,0101000020E610000044F8174163B754C024809BC58B7D3F40
7-Eleven - New Stanton Service Plaza,734 New Stanton Plaza Rd,Hunker,15639,40.206139,-79.56679,64027,0101000020E6100000CA6C904946E453C00FB743C3621A4440
Colorado Springs Utilities - X3Energy - Ward Alternative Energy,7790 Durant Dr,Colorado Springs,80920,38.945105,-104.724068,64049,0101000020E610000021054F21572E5AC09E245D33F9784340
Lancaster County Solid Waste Management Authority,1299 Harrisburg Pike,Lancaster,17603,40.055995,-76.327723,64057,0101000020E610000069C9E369F91453C0A9DE1AD82A074440
GAIN Clean Fuel - Charlotte,4250 Trailer Dr,Charlotte,28269,35.277382,-80.809339,64203,0101000020E61000002618CE35CC3354C0E23FDD4081A34140
GAIN Clean Fuel - Scranton,429 Highway 315,Pittston,18640,41.315531,-75.753889,64204,0101000020E61000001BF4A5B73FF052C0E5EFDE5163A84440
Love's Travel Stop #354,2129 Washington Rd NW,Thomson,30824,33.514228,-82.503612,64207,0101000020E6100000E277D32D3BA054C000581D39D2C14040
Love's Travel Stop #450,800 Martin Luther King Jr Dr,West Memphis,72301,35.153934,-90.138245,64208,0101000020E610000079758E01D98856C009DFFB1BB4934140
Love's Travel Stop #266,3201 12th Ave NW,Ardmore,73401,34.188212,-97.171022,64212,0101000020E610000060394206F24A58C07D5BB05417184140
Love's Travel Stop #255,214 S Highway 100,Webbers Falls,74470,35.527616,-95.119289,64213,0101000020E61000007171546EA2C757C0556CCCEB88C34140
Mansfield Clean Energy Partners,2765 Woodwin Rd,Atlanta,30360,33.916342,-84.274911,64229,0101000020E6100000E2934E24981155C0C2F9D4B14AF54040
Palatka Gas,900 Reid St,Palatka,32177,29.649223,-81.637954,64311,0101000020E61000008D96033DD46854C09ECF807A33A63D40
CNG Energy Partners - Lake Jackson - Public,204 Medical Dr,Lake Jackson,77566,29.026255,-95.449404,64318,0101000020E610000043ACFE08C3DC57C0425BCEA5B8063D40
Nopetro,1625 Florida SR 16,St. Augustine,32084,29.912117,-81.382638,64516,0101000020E61000003D0D18247D5854C02920ED7F80E93D40
Trillium,975 Keystone Blvd,Pottsville,17901,40.7249569,-76.3171771,64522,0101000020E610000091E22DA14C1453C039414063CB5C4440
Cedar Bus Company,401 E Amherst St,Buffalo,14215,42.938929,-78.823213,64694,0101000020E610000017299485AFB453C00C2252D32E784540
Fuel-A-New,469 Rollins Industrial Ct,Ringgold,30736,34.89794,-85.121699,64707,0101000020E61000002E3D9AEAC94755C097E2AAB2EF724140
El Dorado City Public Works,222 E 2nd Ave,El Dorado,67042,37.820438,-96.847397,64827,0101000020E6100000A06EA0C03B3658C0A532C51C04E94240
PSNC Energy,4077 Haywood Rd,Mills River,28759,35.3803,-82.549408,64847,0101000020E61000004A0A2C8029A354C09B559FABADB04140
American Natural Gas,3543 Highway 367,Higginson,72143,35.201617,-91.732791,64938,0101000020E610000067F3380CE6EE56C0A8A8FA95CE994140
Washington Gas,1800 N Market St,Frederick,21701,39.4402,-77.398393,64964,0101000020E6100000247D5A457F5953C07FD93D7958B84340
Washington Gas,7685 Penn Belt Dr,Forestville,20747,38.836522,-76.874122,64965,0101000020E6100000B4AD669DF13753C038312427136B4340
B&H Construction,600 W Interstate Dr,Goldsby,73093,35.1505377,-97.479381,65032,0101000020E6100000B954A52DAE5E58C05428C1D144934140
American Natural Gas,34 Cady Hill Blvd,Saratoga Springs,12866,43.062221,-73.822235,65392,0101000020E61000001AA88C7F9F7452C0ED0F94DBF6874540
Piedmont Natural Gas - Anderson,1207 SC Highway 28 Bypass,Anderson,29626,34.501374,-82.684429,65417,0101000020E6100000C6DB4AAFCDAB54C04888F2052D404140
GAIN Clean Fuel - Keystone CNG,3601 Glover Rd,Easton,18040,40.744271,-75.218923,65418,0101000020E6100000E7559DD502CE52C03C2EAA45445F4440
Spire Natural Gas Fueling Solutions,85 Freeman Farm Rd,Greer,29334,34.888642,-82.159227,65436,0101000020E6100000F96871C6308A54C00FED6305BF714140
Clean Energy - Jacksonville Transportation Authority,100 N Myrtle Ave,Jacksonville,32204,30.331549,-81.678282,65440,0101000020E6100000CADDE7F8686B54C081053065E0543E40
Clean Energy - Morongo Basin Transit Authority,62405 Verbena Rd,Joshua Tree,92252,34.13767434,-116.3033363,65442,0101000020E6100000230CA8DC69135DC031E611509F114140
Kum & Go #414,1220 E Robinson,Springdale,72764,36.167392,-94.119169,65444,0101000020E61000009C6C0377A08757C057CEDE196D154240
American Natural Gas,5260 W 2400 S,West Valley City,84120,40.718555,-112.019118,65521,0101000020E6100000F530B43A39015CC04BB0389CF95B4440
American Natural Gas,5348 E Houston St,San Antonio,78220,29.420734,-98.386385,65522,0101000020E61000008FAA2688BA9858C0B5503239B56B3D40
American Natural Gas,35750 Highway 58,Buttonwillow,93206,35.400164,-119.399727,65523,0101000020E610000001158E2095D95DC0AD84EE9238B34140
GAIN Clean Fuel - Great River CNG,2314 W Mount Pleasant St,West Burlington,52655,40.827376,-91.18523,65525,0101000020E61000003D0FEECEDACB56C066BFEE74E7694440
Clean Energy - Centre County Recycling & Refuse Authority,100 Transfer Rd,Bellefonte,16823,40.838387,-77.787831,65538,0101000020E610000099F1B6D26B7253C01E32E543506B4440
South Jersey Gas - Wawa #8305,51 Berkeley Rd,Paulsboro,8066,39.821725,-75.240765,65547,0101000020E61000005F419AB168CF52C01EA7E8482EE94340
Clean Energy - Progressive Waste Solutions,2138 Country Ln,McKinney,75069,33.169527,-96.600231,65552,0101000020E6100000E7C2482F6A2658C0FE648C0FB3954040
Freedom CNG,303 Fallbrook Dr,Houston,77038,29.93069749,-95.42007738,65555,0101000020E6100000EB383C8CE2DA57C0F004D23042EE3D40
Trillium - San Francisco Airport,50 Old Bayshore Hwy,Millbrae,94030,37.604307,-122.375844,65700,0101000020E61000007619FED30D985EC037DF88EE59CD4240
X3Energy,2323 117th Ave,Greeley,80634,40.401304,-104.868073,65748,0101000020E610000099620E828E375AC083E0F1ED5D334440
Sapp Bros Travel Center,2608 S 24th St,Council Bluffs,51501,41.235744,-95.88063,65752,0101000020E61000001878EE3D5CF857C0361D01DC2C9E4440
Champion CNG,316 N Main St,Hennessey,73742,36.112305,-97.899292,65753,0101000020E61000007C6308008E7958C0B1169F02600E4240
Nopetro - Central Florida Regional Transportation Authority,2713 Lynx Ln,Orlando,32804,28.574916,-81.414753,65766,0101000020E6100000BFBA2A508B5A54C078F2E9B12D933C40
Clean Energy - Atlanta Fulton Industrial Park,5955 Bakers Ferry Rd SW,Atlanta,30336,33.732199,-84.574809,65769,0101000020E6100000931CB0ABC92455C0FB9463B2B8DD4040
Clean Energy - Aviation CNG,9131 Aviation Blvd,Inglewood,90301,33.952886,-118.377315,65814,0101000020E61000009352D0ED25985DC07B681F2BF8F94040
Freedom CNG,7400 W County Rd 116,Midland,79706,31.94055499,-102.1698017,66310,0101000020E61000008813F307DE8A59C0BD233A36C8F03F40
GAIN Clean Fuel - Dubois,301 Dubois St,Dubois,15801,41.125042,-78.765941,66465,0101000020E6100000986A662D05B153C02F50526001904440
Clean N' Green,1850 W Betteravia Rd,Santa Maria,93455,34.919891,-120.47825,66625,0101000020E6100000F853E3A59B1E5EC03F7100FDBE754140
Poteau CNG,34042 Old Wister Hwy,Poteau,74953,35.02927,-94.647628,66683,0101000020E610000054FEB5BC72A957C080608E1EBF834140
Ross Plumbing,940 Thomas Ave,Leesburg,34748,28.823721,-81.904059,66737,0101000020E6100000E3A9471ADC7954C046072461DFD23C40
EDCO Disposal - San Marcos,224 S Las Posas Rd,San Marcos,92078,33.141628,-117.193864,66757,0101000020E6100000CBF78C44684C5DC05419C6DD20924040
EDCO Disposal - La Mesa,8173 Commercial St,La Mesa,91942,32.77254,-117.021643,66761,0101000020E6100000FD4B529962415DC0096D3997E2624040
CNG Pitstop,2204 State Route 39 NW,Dover,44622,40.524816,-81.499905,66833,0101000020E6100000D7868A71FE5F54C07235B22B2D434440
OnCue Express #115 - C-Store,3201 S Kelly Ave,Edmond,73013,35.626543,-97.496058,67023,0101000020E6100000D4BA0D6ABF5F58C0D4449F8F32D04140
American Bulk Gas,8110 Southern Blvd,Youngstown,44512,41.002876,-80.655403,67029,0101000020E6100000D2AC6C1FF22954C0BEF8A23D5E804440
Sunoco A-Plus Convenience Store,1201 Airport Blvd,Pittsburgh,15231,40.494173,-80.267199,67057,0101000020E610000088A1D5C9191154C07AC8940F413F4440
GAIN Clean Fuel - Kissimmee,1907 S Poinciana Blvd,Kissimmee,34758,28.248652,-81.486722,67071,0101000020E6100000990F0874265F54C0C21550A8A73F3C40
Sparq - Tulsa,13003 E Admiral Pl,Tulsa,74116,36.161696,-95.829403,67073,0101000020E6100000130D52F014F557C06FF25B74B2144240
Shipley Energy,714 Loucks Mill Rd,York,17403,39.974852,-76.723959,67118,0101000020E610000045292158552E53C0583849F3C7FC4340
Ontario CNG - 76,1850 E Holt Blvd,Ontario,91761,34.063139,-117.61148,67170,0101000020E61000001E8A027D22675DC0130D52F014084140
Clean Energy - Lake Havasu City Pilot #211,14750 S Highway 95,Lake Havasu City,86404,34.72836089,-114.3166321,67197,0101000020E6100000499748B343945CC0231EFDED3A5D4140
Clean Energy - Pilot Travel Center #524,4650 Kansas Ave,Kansas City,66106,39.091195,-94.682103,67198,0101000020E610000039605793A7AB57C084471B47AC8B4340
IGS CNG Services - Speedway South Bend,6161 W Brick Rd,South Bend,46628,41.738117,-86.333532,67298,0101000020E6100000D90A9A96589555C092CF2B9E7ADE4440
GAIN Clean Fuel - Edwardsville,4120 Lakeview Corporate Dr,Edwardsville,62025,38.797138,-90.076424,67830,0101000020E61000004A287D21E48456C00D33349E08664340
Clean Energy - Carlisle Flying J #708,1501 Harrisburg Pike,Carlisle,17013,40.23601,-77.122908,67844,0101000020E6100000AC1A84B9DD4753C0B5C35F93351E4440
Sparq - Watonga,320 S Clarence Nash Blvd,Watonga,73772,35.840761,-98.419831,67845,0101000020E610000035B6D782DE9A58C04A60730E9EEB4140
Sparq - Eaton,250 E Collins St,Eaton,80615,40.524528,-104.709098,67979,0101000020E61000002DEA93DC612D5AC00BEBC6BB23434440
City of Rockport,1845 Stadium Dr,Rockport,78382,28.043774,-97.048122,68027,0101000020E6100000F60D4C6E144358C0446ADAC5340B3C40
Greenville Utilities Commission - Fueling Facility #1,290 Easy St,Greenville,27834,35.651702,-77.369504,68219,0101000020E610000070EF1AF4A55753C0705E9CF86AD34140
GAIN Clean Fuel - Centerville,350 N Fwy Service Rd,Centerville,75833,31.207465,-95.996079,68443,0101000020E6100000DF4E22C2BFFF57C08C101E6D1C353F40
CNG Energy LLC,1269 E Tucker Rd,Liberal,67901,37.069631,-100.905444,68444,0101000020E6100000011764CBF23959C0D6E429ABE9884240
Nat G CNG Solutions,8526 Vidor Ave,San Antonio,78216,29.516536,-98.471177,68600,0101000020E6100000276893C3279E58C0E7340BB43B843D40
Clean and Green CNG Technologies Corp,3004 N Main St Ext,Jamestown,14701,42.128286,-79.239695,68608,0101000020E6100000F180B22957CF53C07044F7AC6B104540
GAIN Clean Fuel - Inglewood,11144 S La Cienega Blvd,Inglewood,90304,33.933343,-118.370006,68611,0101000020E6100000B954A52DAE975DC0AB798EC877F74040
Allied Clean Fuels Plaza,231 Devlin Rd,Napa,94558,38.2356194,-122.2655026,69025,0101000020E610000031009EFEFD905EC0CDA6C8C6281E4340
American Natural Gas,445 Cherry Blossom Way,Georgetown,40324,38.273839,-84.550775,69128,0101000020E6100000151DC9E53F2355C047AF06280D234340
OnCue Express #117 - C-Store,7400 S Sooner Rd,Oklahoma City,73135,35.392817,-97.422948,69155,0101000020E610000027FA7C94115B58C00B28D4D347B24140
OnCue Express #118 - C-Store,411 SW 4th St,Moore,73160,35.334776,-97.490921,69156,0101000020E6100000DBFAE93F6B5F58C02BBEA1F0D9AA4140
OnCue Express #120 - C-Store,4100 E 15th St,Edmond,73013,35.63815195,-97.4280287,69157,0101000020E6100000F60F7DD2645B58C077908DF6AED14140
OnCue Express #122 - C-Store,1000 N Czech Hall Rd,Yukon,73099,35.478088,-97.741089,69158,0101000020E6100000399B8E006E6F58C0164ED2FC31BD4140
Lompoc Unified School District,596 E Central Ave,Lompoc,93436,34.660758,-120.452355,69160,0101000020E6100000A7CB6262F31C5EC00249D8B793544140
Greater Dickson Gas Authority,605 E Walnut St,Dickson,37055,36.070478,-87.382391,69204,0101000020E610000039D2191879D855C0338B506C05094240
Trillium - Glenwood Shell,23 Mel Ray Rd,Glenwood Springs,81601,39.561983,-107.361514,69702,0101000020E6100000F4C29D0B23D75AC038F4160FEFC74340
EVO CNG - San Antonio,9695 W Weichold Rd,Converse,78109,29.46676,-98.295009,69824,0101000020E6100000A4C16D6DE19258C0BA1457957D773D40
Trillium - Holiday Stationstore #3552,21100 Kenrick Ave,Lakeville,55044,44.643241,-93.289564,69828,0101000020E610000055867137885257C0223999B855524640
Trillium,637 Old Philadelphia Rd,Aberdeen,21001,39.497643,-76.169957,69829,0101000020E61000007B2E5393E00A53C0AA0A0DC4B2BF4340
Trillium,7940 Joliet Rd,McCook,60534,41.805516,-87.818549,69830,0101000020E61000001B4B581B63F455C0CE33F6251BE74440
Crown Clean Fuels LLC,1066 W State Route 42,Brazil,47834,39.446197,-87.128195,69925,0101000020E6100000B020CD5834C855C06249B9FB1CB94340
Sunoco,2300 Hill Church Houston Rd,Canonsburg,15317,40.241864,-80.18491,70105,0101000020E610000004ADC090D50B54C0350A4966F51E4440
Alternative Vehicle Service Group - Worcester,20 Quinsigamond Ave,Worcester,1608,42.251305,-71.805502,70126,0101000020E610000035B742588DF351C0202922C32A204540
City of Milwaukee - Congress Ave,3100 W Congress St,Milwaukee,53216,43.09717947,-87.95114243,70560,0101000020E610000008AC7F84DFFC55C00EBF7A60708C4540
American Natural - Carrollton,203 Scio Rd SW,Carrollton,44615,40.5688303,-81.0930949,71062,0101000020E610000029BB4F44F54554C0A8BC676ECF484440
GAIN Clean Fuel - Houston - American Fueling Systems,7530 E Orem Dr,Houston,77075,29.6257,-95.288383,71065,0101000020E61000003B6EF8DD74D257C0711B0DE02DA03D40
Clean Energy - Islip Resource Recovery Agency,4001 Veterans Memorial Hwy,Ronkonkoma,11779,40.78642,-73.105125,71421,0101000020E61000007D3F355EBA4652C0CD751A69A9644440
Shell Sioux-Per Center,1212 N Main Ave,Sioux Center,51250,43.090881,-96.174499,71423,0101000020E6100000D28BDAFD2A0B58C0F56915FDA18B4540
7-Eleven #23,1 NE 36th St,Oklahoma City,73105,35.508446,-97.511304,71474,0101000020E610000018946934B96058C019E42EC214C14140
City of Monterey Park,751 S Alhambra Ave,Monterey Park,91755,34.05305,-118.116522,72094,0101000020E6100000EED0B01875875DC0C286A757CA064140
Clean Energy - Vandalia Pilot Flying J #97,175 Northwoods Blvd,Vandalia,45377,39.902119,-84.192368,72595,0101000020E61000000133DFC14F0C55C0D40CA9A278F34340
City of Augusta,711 Scott Nixon Memorial Dr,Augusta,30907,33.497956,-82.089662,72596,0101000020E61000006A6CAF05BD8554C06A6CAF05BDBF4040
OnCue Express #119 - C-Store,2837 NW 36th St,Oklahoma City,73112,35.507948,-97.564657,73696,0101000020E6100000471D1D57236458C0C808A87004C14140
Kwik Trip #273,6516 Grand Ave,Duluth,55807,46.731172,-92.180261,73699,0101000020E6100000A2EF6E65890B57C01EE0490B975D4740
Clean Energy - Central Point Pilot #391,275 S Penninger Rd,Central Point,97502,42.37655,-122.898932,73901,0101000020E6100000FC54151A88B95EC087A757CA32304540
City of Columbus - CNG West,5115 Krieger Ct,Columbus,43228,39.916146,-83.134395,74091,0101000020E6100000BD6F7CED99C854C03C2EAA4544F54340
Trillium,5420 N Fruit Valley Rd,Vancouver,98660,45.661567,-122.694375,75107,0101000020E61000003D0AD7A370AC5EC0718E3A3AAED44640
Clean Energy - Stirk CNG,3400 S Newberry Rd,North Platte,69101,41.1010672,-100.7272963,75587,0101000020E61000001EC0C7058C2E59C062591FC5EF8C4440
OnCue Express #126 - C-Store,300 S Council Rd,Oklahoma City,73128,35.462338,-97.654087,75638,0101000020E6100000486FB88FDC6958C05AD93EE42DBB4140
American Natural - Harmar Energy Centre,2 Rich Hill Rd,Cheswick,15024,40.54965,-79.832323,75666,0101000020E61000005A2DB0C744F553C08A1F63EE5A464440
TruStar Energy - Fort Myers,5345 Dividend Dr,Fort Myers,33905,26.638634,-81.806279,75688,0101000020E6100000E71C3C139A7354C0191D90847DA33A40
SoCalGas - Murrieta,41376 Guava St,Murrieta,92562,33.545881,-117.191846,75776,0101000020E610000094F77134474C5DC0FF40B96DDFC54040
GAIN Clean Fuel - Greensburg,1564 Roseytown Rd,Greensburg,15601,40.30982,-79.508816,75801,0101000020E61000009EEBFB7090E053C0C8D2872EA8274440
American Natural Gas,1145 Chili Ave,Gates,14624,43.139294,-77.666717,75843,0101000020E6100000FCABC77DAB6A53C0B743C362D4914540
American Natural Gas,7253 Oswego Rd,Liverpool,13088,43.120271,-76.220444,75845,0101000020E61000005DA626C11B0E53C020D4450A658F4540
American Natural Gas,1560 Winchester Hwy,Fayetteville,37334,35.165628,-86.535068,75846,0101000020E6100000B648DA8D3EA255C0A4A65D4C33954140
Love's Travel Stop #604,2700 E Highway 33,Guthrie,73044,35.87844,-97.392471,75900,0101000020E61000003868AF3E1E5958C0C6BFCFB870F04140
American Natural Gas,10405 E 40th Ave,Denver,80239,39.773537,-104.867049,75921,0101000020E6100000E3C116BB7D375AC07B9FAA4203E34340
IGS CNG Services - Montgomery County Solid Waste,2750 Cardington Rd,Moraine,45439,39.713376,-84.214739,76974,0101000020E61000003F8BA548BE0D55C02AE09EE74FDB4340
Riverview Land Preserve,20863 Grange Rd,Riverview,48193,42.159744,-83.212429,77051,0101000020E610000035EECD6F98CD54C0BADDCB7D72144540
Clean Energy - Bronx NY,1361 Ryawa Ave,Bronx,10474,40.805695,-73.880803,77158,0101000020E6100000FFCD8B135F7852C07EC6850321674440
Clean Energy - Westhampton Beach,Gabreski Airport,Westhampton Beach,11978,40.84,-72.63,77159,0101000020E6100000B81E85EB512852C0EC51B81E856B4440
Dinuba Transit Center,1092 County Route J40,Dinuba,93618,36.5311181,-119.382897,77205,0101000020E6100000232F6B6281D85DC026E88AADFB434240
Clean Energy - Salt Lake City,991 W 2100 S,Salt Lake City,84101,40.725703,-111.920726,77335,0101000020E6100000ECA4BE2CEDFA5BC0F7CDFDD5E35C4440
Clean Energy - Homewood Disposal,1501 W 175th St,Homewood,60430,41.571315,-87.653619,77601,0101000020E6100000D542C9E4D4E955C06C5B94D920C94440
United Parcel Service,1320 Shore St,West Sacramento,95691,38.572721,-121.546207,77947,0101000020E61000002976340EF5625EC0C05DF6EB4E494340
Go Sparq - Lawton,2098 SW 6th St,Lawton,73501,34.584172,-98.396813,78148,0101000020E61000002B685A62659958C0959EE925C64A4140
Sparq - El Reno,1515 S Rock Island Ave,El Reno,73036,35.514933,-97.948691,78255,0101000020E61000009CC0745AB77C58C0CA501553E9C14140
Knoxville Utilities Board,1820 3rd Creek Rd,Knoxville,37921,35.966518,-83.991825,78289,0101000020E6100000BC96900F7AFF54C0677FA0DCB6FB4140
GAIN Clean Fuel - Laredo,15668 N Highway 83,Laredo,78045,27.7695094,-99.4462602,78773,0101000020E61000006920F1868FDC58C0EFF66A91FEC43B40
Trillium,121 S Stanfield Rd,Troy,45373,40.04622947,-84.23977395,79264,0101000020E6100000B26BD674580F55C076E1E6D8EA054440
Trillium - Cambria County Transit Authority,502 Maple Ave,Johnstown,15901,40.334523,-78.900235,79266,0101000020E6100000BBED42739DB953C0416150A6D12A4440
Trillium - Central Pennsylvania Transportation Authority,415 Zarfoss Dr,York,17404,39.944688,-76.793636,79267,0101000020E6100000693BA6EECA3253C03A765089EBF84340
TruStar Energy - Rogue Green Fuels LLC,1125 Anthony Way,White City,97503,42.4273604,-122.8719675,79328,0101000020E610000031EBC550CEB75EC080CDDEBEB3364540
Kentuckiana Cleanfuel,2490 Commerce Blvd,Sharonville,45241,39.289201,-84.425955,79415,0101000020E610000055A4C2D8421B55C0397CD28904A54340
City of Chesapeake,905 Executive Blvd,Chesapeake,23320,36.755694,-76.224619,79934,0101000020E6100000DBC35E28600E53C047E4BB94BA604240
OneStop Fueling,1800 W 181st St S,Mounds,74047,35.901076,-96.016824,79955,0101000020E61000006D72F8A4130158C0F29A577556F34140
"Oreapolis Energy, LLC",108 E Bay Rd,Plattsmouth,68048,41.04622,-95.915192,80512,0101000020E6100000E563778192FA57C0E7357689EA854440
Trillium - Gunnison Valley Rural Transportation Authority,508 W Tomichi Ave,Gunnison,81230,38.544802,-106.932525,81564,0101000020E6100000F46C567DAEBB5AC0CF656A12BC454340
American Natural Gas,1529 N Turnersville Rd,Buda,78610,30.0945515,-97.8111038,81766,0101000020E610000053AAE91FE97358C0AA49F08634183E40
City of Panama City,620 E 27th St,Panama City,32405,30.196844,-85.65117,81768,0101000020E6100000B988EFC4AC6955C0F0694E5E64323E40
Snyder Brothers,90 Glade Dr,Kittanning,16201,40.815644,-79.565628,81857,0101000020E6100000EC6CC83F33E453C0DD96C80567684440
Central Valley Transportation Center,20346 E Huntsman Ave,Reedley,93654,36.582318,-119.42154,82690,0101000020E61000002C7DE882FADA5DC0A2EF6E65894A4240
American Natural - Wexford Energy Centre,2619 Wexford Bayne Rd,Sewickley,15143,40.614665,-80.098711,85517,0101000020E61000005930F147510654C0787FBC57AD4E4440
American Natural Gas,14512 Aliso Dr,Fontana,92337,34.060637,-117.488248,85854,0101000020E610000098158A743F5F5DC0BAF605F4C2074140
Almeda Fuels,12317 Almeda Rd,Houston,77045,29.628285,-95.412268,85912,0101000020E6100000FD4B529962DA57C03F912749D7A03D40
Piedmont Natural Gas - Hickory,3700 17th Ave Cir SW,Hickory,28602,35.70770468,-81.39436429,86009,0101000020E6100000A810B8433D5954C0BFE9231196DA4140
City of Corpus Christi,5352 Ayers St,Corpus Christi,78415,27.73125,-97.429745,86108,0101000020E6100000A6272CF1805B58C03333333333BB3B40
Energy Conservation Works - Lower Valley Energy,4000 S Highway 89,Jackson,83001,43.420504,-110.774568,86948,0101000020E6100000CD21A98592B15BC029EB3713D3B54540
Clean Energy - Portage Area Regional Transportation Authority,2000 Summit Rd,Kent,44240,41.136595,-81.319096,86992,0101000020E61000003412A1116C5454C008E6E8F17B914440
American Natural Gas,110 Jefferson Ridge Pkwy,Lynchburg,24502,37.39664,-79.229086,87011,0101000020E61000002C7E5358A9CE53C089247A19C5B24240
Alternative Vehicle Service Group - Concord,20 Broken Bridge Rd,Concord,3301,43.182787,-71.495001,87706,0101000020E6100000309FAC18AEDF51C025917D9065974540
Alternative Vehicle Service Group - Framingham,15 Blandin Ave,Framingham,1702,42.275962,-71.411974,87707,0101000020E6100000593332C85DDA51C029780AB952234540
OneStop Fueling - Kaw Southwind Express,11200 State Highway 11,Kaw City,74641,36.76560125,-96.88106946,87827,0101000020E6100000150D2971633858C06C43C538FF614240
Blue Mark Fuels - Utility Tri-State Inc,15331 E Admiral Pl,Tulsa,74116,36.16152,-95.805875,87828,0101000020E61000007F6ABC7493F357C031D3F6AFAC144240
Quarles Fleet Fueling,2 Southlawn Ct,Rockville,20850,39.103618,-77.133408,88077,0101000020E61000009641B5C1894853C072A3C85A438D4340
Trillium - Beaver County Transit Authority,131 Pleasant Dr,Aliquippa,15001,40.632915,-80.317475,88190,0101000020E61000000C93A982511454C0EC12D55B03514440
Mid-Kansas CNG,636 Thompson St,Kingman,67068,37.648431,-98.094183,88383,0101000020E6100000B5352218078658C0365B79C9FFD24240
Clean Energy - Midway Pilot #92,4255 NW Highway 326,Ocala,34482,29.267909,-82.191578,88505,0101000020E610000085285FD0428C54C0D74D29AF95443D40
Chesapeake Utilities,500 Energy Ln,Dover,19904,39.1519025,-75.5070656,88600,0101000020E61000004E3B46C373E052C01FD7868A71934340
Fullerton Joint Union High School District,1021 S Leslie St,La Habra,90631,33.919681,-117.940717,89323,0101000020E6100000A47213B5347C5DC054E0641BB8F54040
Trillium - Westmoreland County Transit Authority,1823 Business Route 66,Greensburg,15601,40.371142,-79.572258,89738,0101000020E6100000F6B704E09FE453C00516C094812F4440
American Natural Gas,4383 Leckron Rd,Modesto,95357,37.630952,-120.918922,89813,0101000020E6100000CB64389ECF3A5EC043ACFE08C3D04240
South Jersey Gas - Riggins,461 Delsea Dr,Malaga,8328,39.572621,-75.053406,89911,0101000020E610000040DAFF006BC352C05C001AA54BC94340
Clean Energy - USA Hauling and Recycling,3 Shoham Rd,East Windsor,6088,41.93118217,-72.59761565,91696,0101000020E6100000FA14B6553F2652C0586233FA30F74440
Piedmont Natural Gas - Fayetteville,4740 Corporation Dr,Fayetteville,28306,34.953342,-78.890291,91913,0101000020E6100000153B1A87FAB853C09DF3531C077A4140
Kwik Star #490,7500 Nordic Dr,Cedar Falls,50613,42.470441,-92.447165,92096,0101000020E61000009DBAF2599E1C57C049D92269373C4540
City of Columbus - Central Ohio Transit Authority,1396 McKinley Ave,Columbus,43222,39.964527,-83.039256,94399,0101000020E6100000FE0A992B83C254C0F38DE89E75FB4340
Kwik Stop - 16th St,1210 E 16th St,Dubuque,52001,42.511462,-90.656075,94574,0101000020E6100000492EFF21FDA956C0C992399677414540
B&H Construction,5500 W 55th St,Tulsa,74107,36.081743,-96.054325,97026,0101000020E6100000BC96900F7A0358C0A6D6FB8D760A4240
Trillium - New Castle Transit Authority,311 Mahoning Ave,New Castle,16102,40.982071,-80.356436,98522,0101000020E61000007EC7F0D8CF1654C0CDACA580B47D4440
Trillium - Crawford Area Transportation Authority,13227 Dunham Rd,Meadville,16335,41.650334,-80.172138,98710,0101000020E610000087191A4F040B54C00ABDFE243ED34440
Trillium - Lehigh and Northampton Transportation Authority,1060 Lehigh St,Allentown,18103,40.587692,-75.474566,98712,0101000020E6100000C972124A5FDE52C0770FD07D394B4440
Rialto Unified School District,261 S Lilac Ave,Rialto,92376,34.09735908,-117.37883,99695,0101000020E6100000982F2FC03E585DC0C9482843760C4140
GAIN Clean Fuel - Independence Fuel Systems,8181 S Lancaster Rd,Dallas,75241,32.648858,-96.782923,100443,0101000020E6100000511212691B3258C0BDDF68C70D534040
ASAP General Store 308,1835 SW Frank Phillips Blvd,Bartlesville,74003,36.751521,-96.000152,103895,0101000020E6100000DBC1887D020058C0ECA012D731604240
SoCalGas - Fontana Base,16231 Valley Blvd,Fontana,92335,34.069321,-117.45157,104021,0101000020E6100000B476DB85E65C5DC088F6B182DF084140
Trillium - Indiana County Transit Authority,1657 Saltsburg Ave,Indiana,15701,40.612658,-79.172436,104492,0101000020E6100000CC29013109CB53C0FFD0CC936B4E4440
IGS CNG Services - Fairview,6411 Howard Dr,Fairview,16415,42.020202,-80.188497,105075,0101000020E61000003999B855100C54C02AA8A8FA95024540
Blue Mark Fuels,12585 E 46th St N,Tulsa,74116,36.2210036,-95.8366605,105517,0101000020E6100000B8567BD88BF557C02E2691D8491C4240
Blue Mark Fuels,800 SW 15th,Wagoner,74467,35.944482,-95.388105,105518,0101000020E6100000809A5AB6D6D857C091D442C9E4F84140
Seneca Landfill - Lego-V,421 Hartmann Rd,Evans City,16033,40.812004,-80.078881,117015,0101000020E6100000A6D1E4620C0554C0501C40BFEF674440
Clean Energy - South Jersey Gas,21 White Horse Pike,Waterford Works,8089,39.729204,-74.863836,117871,0101000020E6100000E146CA1649B752C0630E828E56DD4340
Kwik Trip #1048,341 Jefferson St E,West Salem,54669,43.893228,-91.077717,118326,0101000020E6100000F855B950F9C456C08DEF8B4B55F24540
CLEANCOR,670 Garnet Ave,Palm Springs,92262,33.904195,-116.552357,124553,0101000020E6100000DEAD2CD159235DC0761A69A9BCF34040
SoCalGas - Bakersfield Base,35118 McMurtrey Ave,Bakersfield,93308,35.44379133,-119.0777035,135483,0101000020E610000039D21918F9C45DC0974C8027CEB84140
SoCalGas - Branford Base,12475 Branford St,Pacoima,91331,34.247415,-118.405835,146957,0101000020E61000009E245D33F9995DC019C5724BAB1F4140
Ozinga Energy - Gary,2555 E 15th Ave,Gary,46403,41.587098,-87.302188,151885,0101000020E6100000984F560C57D355C004C6FA0626CB4440
Trillium - Centre Area Transit Authority,2081 W Whitehall Rd,State College,16801,40.761973,-77.8767,151892,0101000020E6100000CE1951DA1B7853C0AEB7CD5488614440
Love's Travel Stop #392,2000 E Tehachapi Blvd,Tehachapi,93561,35.125636,-118.408202,151894,0101000020E61000005B0A48FB1F9A5DC0A29927D714904140
City of Booneville,503 E Veterans Dr,Booneville,38829,34.666545,-88.543729,153707,0101000020E6100000C138B874CC2256C0FA27B85851554140
Codyco,2101 Dennisville-Petersburg Rd,Woodbine,8270,39.224956,-74.774461,155590,0101000020E6100000C2C1DEC490B152C0FD84B35BCB9C4340
South Jersey Gas,650 Shunpike Rd,Burleigh,8210,39.052532,-74.851683,156339,0101000020E6100000C9E369F981B652C02AFF5A5EB9864340
Consumers Energy,5091 S Dort Hwy,Flint,48507,42.957467,-83.652711,163399,0101000020E610000053AF5B04C6E954C0E7FF55478E7A4540
